# 2016 10 14 02 43 38.107 42.7657  13.1317  10.154  0.84 0 0 0    137
 ED11   2.623 1 P
 ED11   4.793 1 S
 ED02   4.413 1 P
 ED02   8.263 1 S
T1217   3.403 1 P
T1217   6.333 1 S
T1212   2.103 1 P
T1215   4.013 1 P
T1215   7.803 1 S
 ED12   2.893 1 P
 ED12   5.183 1 S
T1216   3.453 1 P
T1216   6.113 1 S
 NRCA   3.674 1 S
 NRCA   2.034 1 P
 ED19   3.503 1 P
 ED19   6.143 1 S
 CSP1  11.773 1 S
  MC2   6.594 1 S
 ED18   4.733 1 P
 ED18   8.843 1 S
 ED21   5.423 1 P
 ED21  10.033 1 S
T1245   2.564 1 P
T1245   4.514 1 S
 ED22  10.063 1 S
 ED17   8.553 1 S
 ED17   4.573 1 P
 ED10   1.623 1 P
 MMO1   7.404 1 S
 MMO1   3.994 1 P
 ED16   6.173 1 S
 ED16   3.293 1 P
 ED09   4.133 1 P
 ED09   7.803 1 S
T1214   1.983 1 P
T1214   3.543 1 S
 ED20   7.903 1 S
 ED20   4.243 1 P
 TERO   6.993 1 P
 TERO  12.923 1 S
 ED07   5.393 1 P
 ED07  10.143 1 S
T1246  11.353 1 S
T1202   2.553 1 P
T1202   4.913 1 S
 SMA1   4.023 1 P
T1201   3.473 1 P
 ED05  11.833 1 S
 ED24   2.803 1 P
 ED24   5.383 1 S
T1218   2.123 1 P
T1218   4.523 1 S
# 2016 10 14 02 44 24.141 42.8921  13.2573   3.469  0.88 0 0 0    138
 RM33  13.929 1 S
T1202   7.529 1 S
 ED03  10.669 1 S
 ED24   4.679 1 P
 ED24   9.849 1 S
T1214   5.319 1 S
T1214   2.749 1 P
 ED01  13.359 1 S
T1218   4.679 1 P
T1218   8.959 1 S
 ED10   2.669 1 P
 ED11   5.319 1 P
 ED11   9.669 1 S
 ED02  12.929 1 S
T1212   3.979 1 P
T1212   7.659 1 S
T1245   1.239 1 P
 NRCA   2.269 1 P
 ED12   4.209 1 P
T1215   5.579 1 P
T1216   3.369 1 P
T1216   6.349 1 S
 ED19   1.829 1 P
  MC2   1.279 1 P
 CESI  10.199 1 S
 FDMO   3.639 1 P
 FDMO   7.009 1 S
 CSP1   4.089 1 P
 CSP1   7.779 1 S
 ED18   4.329 1 S
 ED18   2.149 1 P
 ED21   2.859 1 P
 ED21   5.429 1 S
 ED22   5.449 1 S
 ED17   1.849 1 P
 MMO1   1.159 1 P
 ED09   5.409 1 S
 ED09   3.039 1 P
 TERO   6.899 1 P
 TERO  13.229 1 S
 ED20   7.129 1 S
 ED20   3.719 1 P
T1246   6.549 1 P
T1246  12.759 1 S
 ED07  11.259 1 S
 ED16   1.979 1 S
 ED16   1.549 1 P
 SMA1   9.559 1 S
 ED05  14.919 1 S
T1204   8.429 1 S
# 2016 10 14 02 46 18.152 42.7913  13.2230   5.902  0.51 0 0 0    139
 ED24   2.928 1 P
 ED24   5.618 1 S
T1214   1.228 1 P
T1217   8.358 1 S
T1212   5.188 1 S
 ED10   1.488 1 P
T1215   9.208 1 S
 ED12   6.718 1 S
 NRCA   1.868 1 P
 NRCA   3.498 1 S
 ED19   5.458 1 S
T1245   3.148 1 S
 ED18   7.568 1 S
 ED22   9.118 1 S
 ED17   6.648 1 S
 ED17   3.678 1 P
 MMO1   2.658 1 P
 MMO1   5.088 1 S
 ED16   3.498 1 S
 ED16   1.828 1 P
 ED09   5.608 1 S
 ED09   2.928 1 P
 ED20   5.988 1 S
 ED20   3.158 1 P
 TERO  11.518 1 S
 TERO   6.048 1 P
T1246  10.188 1 S
T1246   5.468 1 P
 ED05  11.888 1 S
T1202   4.228 1 S
# 2016 10 14 02 46 32.055 42.7396  13.1882   4.473  0.54 0 0 0    140
T1218   1.855 1 P
T1218   3.605 1 S
 ED02   4.445 1 P
 ED02   8.485 1 S
 ED11   2.505 1 P
 ED11   4.855 1 S
T1212   2.225 1 P
T1212   4.185 1 S
T1215   8.935 1 S
 ED12   3.415 1 P
 ED12   6.545 1 S
 ED10   1.565 1 S
 NRCA   4.125 1 S
 ED22  10.975 1 S
 ED17   9.005 1 S
 ED17   4.755 1 P
 MMO1   7.275 1 S
T1214   1.845 1 S
T1214   0.955 1 P
 ED09   6.795 1 S
 ED20   6.635 1 S
 TERO   5.945 1 P
 TERO  11.135 1 S
 ED07   8.535 1 S
T1246   9.565 1 S
T1202   2.395 1 S
T1202   1.215 1 P
T1201   4.365 1 S
T1201   2.285 1 P
 ED05  10.385 1 S
 RM33   8.755 1 S
 ED24   1.725 1 P
 ED24   3.315 1 S
# 2016 10 14 02 50 32.061 42.5793  13.2975   3.558  0.23 0 0 0    141
 ED01   6.079 1 S
 ED04   0.489 1 P
 ED04   1.199 1 S
 ED24   2.159 1 P
 ED24   4.409 1 S
T1201   3.529 1 S
T1201   1.719 1 P
T1299   1.009 1 P
 SMA1   1.189 1 P
 ED25   1.039 1 P
 ED07   5.149 1 S
 TERO   8.019 1 S
T1246   5.599 1 S
 ED05   2.329 1 P
 ED05   4.569 1 S
# 2016 10 14 02 54 23.941 42.7421  13.1844   2.419  1.31 0 0 0    142
 ED01   4.269 1 P
 ED08   5.499 1 P
T1218   1.779 1 P
T1211   5.999 1 P
 ED02   8.559 1 S
 ED02   4.339 1 P
 ARRO   6.529 1 P
 ED11   2.359 1 P
T1217   3.699 1 P
T1212   4.239 1 S
T1212   1.859 1 P
T1215   8.849 1 S
T1215   4.649 1 P
 ED12   3.259 1 P
 ED12   6.399 1 S
 ED10   1.249 1 P
T1216   3.839 1 P
T1216   6.899 1 S
 CESI   6.429 1 P
 NRCA   2.199 1 P
 FDMO   5.859 1 P
 ED19   3.599 1 P
 ED19   7.039 1 S
  MC2   3.549 1 P
  MC2   6.929 1 S
T1245   2.299 1 P
T1245   4.829 1 S
 CSP1  12.329 1 S
 CSP1   6.309 1 P
 ED18   4.819 1 P
 ED18   9.479 1 S
 ED21   5.589 1 P
 ED21  10.799 1 S
 GUMA   6.949 1 P
 GUMA  12.899 1 S
 ED22  10.919 1 S
 ED17   8.889 1 S
 ED17   4.449 1 P
 MMO1   7.159 1 S
 MMO1   3.559 1 P
 ED16   5.489 1 S
 ED16   2.659 1 P
T1214   0.959 1 S
T1214   0.429 1 P
 ED09   6.869 1 S
 ED09   3.439 1 P
 ED20   6.709 1 S
 ED20   3.349 1 P
 TERO   6.009 1 P
 ED07   4.429 1 P
 ED07   8.729 1 S
T1204   2.579 1 P
T1246   5.179 1 P
T1246   9.739 1 S
 ED15   6.409 1 P
 SMA1   3.159 1 P
 GIGS   7.699 1 P
 ED25   3.979 1 P
T1202   1.209 1 P
 CAMP   5.429 1 P
T1299   2.849 1 P
T1299   5.639 1 S
 ED14  12.469 1 S
 ED14   6.429 1 P
T1201   4.459 1 S
T1201   2.299 1 P
 ED05   5.499 1 P
 ED05  10.449 1 S
 RM33   4.419 1 P
 RM33   8.559 1 S
 ED24   1.779 1 P
 ED03   5.489 1 S
 ED03   2.779 1 P
# 2016 10 14 02 56 22.597 42.8710  13.2482   3.316  0.39 0 0 0    143
T1218   4.993 1 P
 ED10   4.623 1 S
T1212   7.223 1 S
T1245   2.033 1 S
T1245   0.893 1 P
 NRCA   4.043 1 S
 ED19   1.703 1 P
 ED19   3.463 1 S
  MC2   2.883 1 S
 FDMO   7.653 1 S
 ED18   4.773 1 S
 ED21   6.143 1 S
 ED22   5.903 1 S
 ED17   3.843 1 S
 ED17   1.973 1 P
 MMO1   2.693 1 S
 MMO1   1.293 1 P
 ED20   6.653 1 S
 ED16   2.493 1 S
# 2016 10 14 02 59 50.308 42.8988  13.2338   3.302  0.44 0 0 0    144
T1245   1.113 1 P
T1245   2.233 1 S
 ED19   1.512 1 P
 ED19   2.752 1 S
  MC2   2.103 1 S
 FDMO   6.832 1 S
 ED18   3.972 1 S
 ED21   5.042 1 S
 ED22   5.072 1 S
 ED17   3.192 1 S
 ED17   1.682 1 P
 MMO1   2.672 1 S
 MMO1   1.262 1 P
 TERO  13.732 1 S
 ED16   3.242 1 S
T1246  12.462 1 S
 ED07  12.362 1 S
 ED25  11.592 1 S
# 2016 10 14 03 00  0.126 42.5781  13.3560  10.435  0.60 0 0 0    145
 ED08   8.464 1 S
 ED01   7.954 1 S
 ED01   4.304 1 P
 ED04   3.404 1 S
 ED03   3.004 1 P
 ED11   9.484 1 S
 ED24   3.394 1 P
 ED24   6.074 1 S
T1212  10.074 1 S
T1201   5.184 1 S
T1299   2.324 1 P
 NRCA  10.925 1 S
T1214   8.104 1 S
T1204   4.384 1 S
T1204   2.524 1 P
 SMA1   1.934 1 P
 SMA1   3.874 1 S
 ED16   9.604 1 S
 ED25   1.594 1 P
 ED20   6.554 1 S
 ED07   2.494 1 P
 TERO   3.904 1 P
 TERO   7.014 1 S
T1246   2.644 1 P
 ED15   6.914 1 S
 ED15   3.434 1 P
 GIGS   7.564 1 S
 CAMP   3.614 1 S
 CAMP   2.064 1 P
 ED14   6.054 1 S
 ED05   4.824 1 S
 ED05   2.694 1 P
# 2016 10 14 03 01 55.373 42.7471  13.1792   4.500  0.54 0 0 0    146
T1218   1.957 1 P
T1218   3.847 1 S
 ED02   4.577 1 P
 ED02   8.537 1 S
 ED11   2.537 1 P
T1217   7.277 1 S
T1212   2.157 1 P
T1212   3.047 1 S
T1215   8.547 1 S
 ED12   3.507 1 P
 ED12   6.157 1 S
 ED10   1.167 1 P
 NRCA   2.047 1 P
 NRCA   3.817 1 S
 ED19   6.517 1 S
 CSP1  12.437 1 S
  MC2   6.917 1 S
 ED18   9.087 1 S
 ED21  10.507 1 S
 ED22  10.477 1 S
 ED17   4.537 1 P
 ED17   8.557 1 S
 MMO1   3.527 1 P
 MMO1   6.797 1 S
 ED16   2.627 1 P
 ED16   5.127 1 S
 ED09   3.407 1 P
T1214   0.697 1 P
 ED20   6.617 1 S
 TERO  11.607 1 S
T1246   9.867 1 S
 ED25   7.757 1 S
T1202   2.287 1 S
T1201   4.717 1 S
T1201   2.377 1 P
 ED05  10.857 1 S
 ED24   3.767 1 S
 ED24   1.837 1 P
# 2016 10 14 03 02 27.042 42.8770  13.1456   2.500  0.76 0 0 0    147
 ED10   3.508 1 S
 ED01  12.618 1 S
T1218   7.318 1 S
 ED08  15.408 1 S
 ED11   7.528 1 S
 ED02  11.328 1 S
T1211  14.538 1 S
T1212   3.178 1 P
T1212   5.428 1 S
 NRCA   2.548 1 S
 NRCA   1.348 1 P
T1217   8.588 1 S
 ED12   2.998 1 P
 ED12   5.588 1 S
T1215   4.288 1 P
T1216   1.948 1 P
 CESI   4.178 1 P
 CESI   7.928 1 S
 FEMA   4.158 1 S
 FDMO   6.378 1 S
 FDMO   3.128 1 P
 ED19   0.738 1 P
 ED19   1.048 1 S
 CSP1   7.968 1 S
 ED18   2.648 1 P
 ED21   3.438 1 P
 ED21   6.478 1 S
  MC2   1.338 1 P
 GUMA   8.808 1 S
 ED22   7.038 1 S
 ED17   2.918 1 P
 ED17   5.558 1 S
 MMO1   2.808 1 P
 MMO1   5.348 1 S
 ED16   5.348 1 S
 ED09   4.298 1 P
 ED20   9.108 1 S
 ED20   4.808 1 P
 TERO  14.828 1 S
 TERO   7.938 1 P
 ED07  12.258 1 S
T1246  13.728 1 S
T1204   9.358 1 S
 ED05  15.218 1 S
T1299  10.398 1 S
T1214   4.128 1 S
T1202   7.628 1 S
 ED24   4.558 1 P
 ED03   5.658 1 P
 ED03  10.358 1 S
# 2016 10 14 03 03 55.077 42.8609  13.0999   3.500  0.64 0 0 0    148
 ED11   3.723 1 P
 ED11   6.993 1 S
T1212   2.373 1 P
T1212   4.483 1 S
 ED02  10.113 1 S
T1211  13.493 1 S
T1217   7.273 1 S
T1217   3.843 1 P
 ED12   2.033 1 P
T1215   3.473 1 P
T1215   6.583 1 S
T1216   1.313 1 P
T1216   2.543 1 S
 CESI   7.333 1 S
 FEMA   4.773 1 S
 FDMO   3.443 1 P
 FDMO   6.523 1 S
 CSP1   9.033 1 S
 ED19   1.403 1 P
 ED21   4.083 1 P
 ED21   7.793 1 S
 ED18   3.333 1 P
  MC2   2.983 1 S
 ED17   3.603 1 P
 MMO1   3.413 1 P
 MMO1   6.633 1 S
T1245   1.473 1 P
 ED09   4.743 1 P
 ED09   9.093 1 S
 ED20   9.693 1 S
T1246  13.933 1 S
 NRCA   0.703 1 P
T1214   2.833 1 P
T1214   5.003 1 S
 ED10   3.643 1 S
 ED10   2.003 1 P
 ED24   4.233 1 P
 ED03  10.103 1 S
# 2016 10 14 03 04 14.951 42.8516  13.1601   4.069  0.91 0 0 0    149
 ED10   2.829 1 S
 ED11   7.479 1 S
T1212   2.529 1 P
T1212   4.999 1 S
T1217   7.969 1 S
 NRCA   1.499 1 P
 ED12   5.099 1 S
 CESI   8.829 1 S
 FDMO   7.219 1 S
 ED19   2.919 1 S
 CSP1   9.239 1 S
  MC2   1.509 1 P
 ED21   3.759 1 P
 ED21   7.459 1 S
 ED22   7.629 1 S
 MNTP  12.359 1 S
 ED17   3.089 1 P
 ED17   6.009 1 S
 MMO1   2.649 1 P
 MMO1   5.099 1 S
T1245   1.319 1 S
 ED16   4.499 1 S
 ED09   7.739 1 S
 ED20   4.209 1 P
 TERO   7.269 1 P
 ED07   5.799 1 P
T1246   6.619 1 P
 ED14  16.139 1 S
 ED05   7.399 1 P
 ED05  14.009 1 S
T1214   4.029 1 S
T1201   4.299 1 P
 ED03   5.009 1 P
# 2016 10 14 03 06 42.675 42.8349  13.1579  10.256  0.82 0 0 0    150
T1218   3.505 1 P
 ED10   1.895 1 P
 ED11   3.555 1 P
 ED11   6.985 1 S
 ED02  10.245 1 S
 ED02   5.465 1 P
T1211  13.635 1 S
T1212   2.645 1 P
T1212   5.035 1 S
 ED12   3.035 1 P
 ED12   5.265 1 S
T1215   8.065 1 S
 NRCA   1.565 1 P
T1216   2.695 1 P
T1216   4.955 1 S
 CESI   9.205 1 S
 CESI   5.015 1 P
 FEMA   6.105 1 S
 FDMO   4.245 1 P
 FDMO   7.785 1 S
 ED19   2.215 1 P
 ED19   4.285 1 S
 CSP1   5.185 1 P
 CSP1   9.655 1 S
  MC2   4.525 1 S
  MC2   2.345 1 P
 ED18   3.645 1 P
 ED18   6.785 1 S
 ED21   4.335 1 P
 ED21   7.995 1 S
T1245   3.295 1 S
T1245   1.675 1 P
 ED17   3.575 1 P
 ED17   6.515 1 S
 MMO1   5.735 1 S
 MMO1   3.135 1 P
 ED16   5.155 1 S
 ED09   4.055 1 P
 ED09   7.395 1 S
 ED20   4.305 1 P
 ED20   8.085 1 S
 TERO   7.205 1 P
 TERO  13.395 1 S
 ED07   5.905 1 P
 ED07  10.865 1 S
T1246   6.605 1 P
T1246  12.135 1 S
 SMA1   8.505 1 S
 SMA1   4.795 1 P
 CAMP  11.915 1 S
 ED25  10.095 1 S
 ED14  14.865 1 S
T1299   4.695 1 P
T1299   8.585 1 S
 ED05  13.295 1 S
T1214   4.485 1 S
T1214   2.165 1 P
T1201   4.185 1 P
T1201   7.845 1 S
T1202   6.115 1 S
 RM33  11.485 1 S
 ED24   7.055 1 S
 ED24   3.705 1 P
 ED03   8.775 1 S
 ED03   4.585 1 P
# 2016 10 14 03 08  1.182 42.7884  13.1889   3.789  0.17 0 0 0    151
T1212   4.538 1 S
 ED10   0.998 1 P
 ED10   1.898 1 S
 ED12   5.868 1 S
 NRCA   1.398 1 P
 NRCA   2.768 1 S
 ED19   5.088 1 S
T1245   2.928 1 S
 ED17   7.218 1 S
 MMO1   5.758 1 S
T1214   1.028 1 P
T1214   1.558 1 S
T1202   4.158 1 S
# 2016 10 14 03 09 32.360 42.7824  13.1217   4.175  0.83 0 0 0    152
T1212   3.430 1 S
 ARRO  11.510 1 S
 NRCA   2.260 1 S
 CSP1  11.620 1 S
 ED18   8.500 1 S
 ED21   9.680 1 S
 ED17   8.190 1 S
T1245   3.540 1 S
 MMO1   7.250 1 S
 ED16   5.910 1 S
 ED09   4.340 1 P
 ED20   8.430 1 S
 ED20   4.460 1 P
T1214   1.610 1 P
T1214   2.890 1 S
T1246  12.110 1 S
T1246   6.510 1 P
 ED10   0.610 1 P
 ED10   1.050 1 S
 ED24   2.990 1 P
# 2016 10 14 03 11  3.313 42.6633  13.1664   9.139  0.43 0 0 0    153
 ED01   5.957 1 S
 ED02   3.817 1 P
T1218   1.747 1 P
T1218   3.247 1 S
 ED11   2.597 1 P
 ED11   3.797 1 S
T1217   7.117 1 S
T1212   5.237 1 S
T1212   2.887 1 P
 ED12   7.627 1 S
 NRCA   6.517 1 S
T1245   7.887 1 S
T1214   4.507 1 S
T1202   3.887 1 S
 ED20   4.007 1 P
 ED20   7.527 1 S
 ED07   7.927 1 S
 ED07   4.277 1 P
T1201   3.817 1 S
 SMA1   5.457 1 S
 ED24   1.547 1 P
 ED03   3.297 1 S
 RM33   6.187 1 S
# 2016 10 14 03 12 47.703 42.8351  13.1614   7.209  0.47 0 0 0    154
 ED10   3.087 1 S
 CESI   8.997 1 S
 ED19   3.967 1 S
  MC2   4.167 1 S
 ED18   6.497 1 S
 ED18   3.347 1 P
 ED21   4.027 1 P
 ED21   7.677 1 S
 ED17   6.407 1 S
 ED17   3.307 1 P
T1245   1.457 1 P
T1245   1.967 1 S
 MMO1   5.757 1 S
 ED20   7.777 1 S
T1214   3.987 1 S
T1214   2.027 1 P
T1201   3.867 1 P
 ED24   3.447 1 P
# 2016 10 14 03 13 15.097 42.8323  13.2500   5.500  0.36 0 0 0    155
T1212   6.513 1 S
 NRCA   3.923 1 S
T1245   1.323 1 P
T1245   2.623 1 S
 ED19   4.633 1 S
 FDMO   8.783 1 S
 ED17   5.653 1 S
 MMO1   1.953 1 P
 MMO1   3.593 1 S
 ED16   2.433 1 S
 ED20   3.153 1 P
 ED20   5.943 1 S
 TERO  11.913 1 S
T1246  10.863 1 S
# 2016 10 14 03 13 47.528 42.7080  13.1726   9.500  0.64 0 0 0    156
 ED01   3.982 1 P
 ED01   7.282 1 S
T1218   1.872 1 P
T1211  10.192 1 S
 ED02   4.572 1 P
 ED02   7.652 1 S
 ED11   2.492 1 P
 ED11   4.592 1 S
T1217   6.832 1 S
T1215   8.842 1 S
T1212   4.482 1 S
T1212   2.492 1 P
 ED12   3.772 1 P
 ED12   6.842 1 S
 NRCA   2.842 1 P
 NRCA   5.442 1 S
 FDMO   6.322 1 P
 ED19   4.352 1 P
 ED21  12.222 1 S
 ED17   9.712 1 S
 MMO1   8.152 1 S
T1214   1.902 1 P
T1214   3.502 1 S
 ED16   6.632 1 S
 ED09   7.492 1 S
 ED20   6.962 1 S
 ED20   3.722 1 P
T1202   3.302 1 S
T1202   1.762 1 P
 ED07   8.392 1 S
 ED07   4.412 1 P
T1246   9.322 1 S
 SMA1   3.262 1 P
 SMA1   6.032 1 S
 ED25   6.862 1 S
T1201   4.192 1 S
T1201   2.252 1 P
T1299   4.812 1 S
 ED14  11.442 1 S
 ED05   9.542 1 S
 ED05   5.142 1 P
 ED24   1.812 1 P
 RM33   3.962 1 P
 ED03   4.682 1 S
# 2016 10 14 03 15 48.042 42.8080  13.2189   5.500  0.52 0 0 0    157
 ED24   6.298 1 S
T1214   2.718 1 S
T1214   1.378 1 P
T1218   6.068 1 S
 ED02  10.298 1 S
 ED11   6.928 1 S
T1217   8.518 1 S
T1212   5.048 1 S
T1212   2.718 1 P
 ED10   1.558 1 P
 ED10   2.608 1 S
 NRCA   2.459 1 P
 ED19   4.558 1 S
T1245   1.249 1 P
 CSP1  10.568 1 S
 ED18   7.068 1 S
 ED17   6.328 1 S
 MMO1   4.758 1 S
 ED16   1.848 1 P
 ED16   3.028 1 S
 ED09   2.998 1 P
 ED20   6.308 1 S
 ED20   3.298 1 P
 TERO  11.838 1 S
T1246  10.638 1 S
 ED05  12.258 1 S
# 2016 10 14 03 17 25.898 42.8767  13.0666   2.500  0.59 0 0 0    158
T1212   2.562 1 P
 ED11   7.092 1 S
T1217   7.222 1 S
 ED12   2.042 1 P
 ED12   4.082 1 S
T1215   3.252 1 P
T1216   1.042 1 P
T1216   1.322 1 S
 CESI   6.732 1 S
 FDMO   3.282 1 P
 FDMO   6.072 1 S
 CSP1   8.782 1 S
 ED21   4.212 1 P
 ED21   8.042 1 S
 ED18   3.402 1 P
 ED19   1.532 1 P
 ED17   3.782 1 P
  MC2   4.342 1 S
 MMO1   7.052 1 S
 MMO1   3.702 1 P
 ED16   6.912 1 S
 ED20  10.332 1 S
 NRCA   1.742 1 S
 NRCA   1.192 1 P
 ED10   4.792 1 S
T1218   8.182 1 S
# 2016 10 14 03 18 53.035 42.8598  13.2319   0.749  1.62 0 0 0    159
 RM33   6.765 1 P
T1214   2.065 1 P
 ED03   5.165 1 P
 ED03   9.985 1 S
 ED24   4.155 1 P
 ED01   6.625 1 P
 ED08   7.875 1 P
T1218   8.425 1 S
T1218   4.085 1 P
 ED10   4.205 1 S
 ED10   2.175 1 P
 ED11   4.455 1 P
T1211   8.265 1 P
 ED02   6.435 1 P
T1212   3.415 1 P
T1212   6.955 1 S
T1217   5.225 1 P
 ED12   3.735 1 P
 NRCA   1.915 1 P
T1215  10.265 1 S
T1215   5.195 1 P
T1216   6.625 1 S
T1216   3.045 1 P
 CESI  10.805 1 S
 CESI   5.395 1 P
 FEMA   6.495 1 S
 ED19   1.755 1 P
 FDMO   7.515 1 S
 FDMO   3.925 1 P
  MC2   1.215 1 P
 CSP1   4.495 1 P
 CSP1   9.265 1 S
 ED18   2.445 1 P
 ED18   5.455 1 S
 ED21   6.845 1 S
 ED21   3.215 1 P
 GUMA   8.585 1 S
 GUMA   4.645 1 P
 ED22   6.635 1 S
 ED17   4.495 1 S
 ED16   1.215 1 P
 ED09   3.165 1 P
 ED20   3.735 1 P
 ED20   7.295 1 S
 TERO  13.175 1 S
 TERO   6.875 1 P
 ED15   7.545 1 P
 ED07   5.565 1 P
T1246  12.425 1 S
T1246   6.395 1 P
 GIGS  17.045 1 S
 CAMP  12.675 1 S
 CAMP   6.605 1 P
T1204   4.035 1 P
 ED14   8.455 1 P
 SMA1   4.715 1 P
 ED25   5.835 1 P
 ED05  14.465 1 S
T1299   4.725 1 P
T1201   4.465 1 P
T1202   3.395 1 P
# 2016 10 14 03 20 17.051 42.8621  13.2239   0.909  0.46 0 0 0    160
T1214   4.349 1 S
 ED10   4.119 1 S
 NRCA   1.889 1 P
T1245   0.589 1 P
 ED19   1.809 1 P
 ED19   3.499 1 S
  MC2   1.359 1 P
  MC2   1.849 1 S
 ED18   5.369 1 S
 ED21   6.799 1 S
 ED22   6.529 1 S
 ED17   4.529 1 S
 ED17   2.349 1 P
 MMO1   3.229 1 S
 MMO1   1.629 1 P
 ED16   2.819 1 S
 ED16   1.459 1 P
 ED20   3.749 1 P
 ED20   7.219 1 S
# 2016 10 14 03 21  2.790 42.8124  13.2172   5.500  0.51 0 0 0    161
T1214   2.800 1 S
T1218   6.360 1 S
 ED02  10.480 1 S
 ED11   7.060 1 S
T1217   8.710 1 S
 ED10   2.890 1 S
 ED10   1.550 1 P
T1212   5.390 1 S
T1212   2.870 1 P
 NRCA   1.670 1 P
 ED19   4.890 1 S
 FDMO   8.830 1 S
T1245   2.090 1 S
T1245   1.360 1 P
  MC2   4.310 1 S
 ED17   6.460 1 S
 ED16   3.480 1 S
 ED09   3.040 1 P
 ED20   3.320 1 P
 ED20   6.320 1 S
 TERO   6.350 1 P
T1246  10.700 1 S
# 2016 10 14 03 21 33.913 42.7299  13.2530  10.499  0.52 0 0 0    162
T1202   3.547 1 S
 ED03   5.517 1 S
 ED24   2.397 1 P
 ED24   4.477 1 S
T1212   6.387 1 S
T1214   3.547 1 S
T1214   1.907 1 P
 NRCA   5.897 1 S
 ED16   5.517 1 S
 ED20   2.877 1 P
 ED20   5.227 1 S
 ED07   7.007 1 S
T1246   4.817 1 P
# 2016 10 14 03 25 34.117 42.8517  13.0812   2.500  0.85 0 0 0    163
 ED11   6.293 1 S
T1212   1.983 1 P
 ED02   9.633 1 S
T1217   3.603 1 P
T1217   6.803 1 S
 ED12   1.663 1 P
T1215   6.183 1 S
T1215   3.263 1 P
T1216   1.193 1 P
 CESI   7.563 1 S
 FDMO   6.913 1 S
 FDMO   3.753 1 P
 CSP1   9.573 1 S
 ED19   1.743 1 P
 ED21   8.343 1 S
 GUMA  10.943 1 S
 ED22   9.093 1 S
  MC2   2.313 1 P
  MC2   2.773 1 S
 ED17   7.683 1 S
 ED17   4.043 1 P
 MMO1   6.893 1 S
T1245   1.683 1 P
 ED16   6.523 1 S
 ED09   9.873 1 S
 ED20   9.893 1 S
T1246  13.963 1 S
 NRCA   0.613 1 P
T1214   5.033 1 S
 ED25  12.403 1 S
T1299  10.063 1 S
T1201   4.813 1 P
 ED10   1.873 1 P
 ED24   8.063 1 S
 RM33  12.903 1 S
T1218   6.863 1 S
# 2016 10 14 03 26 27.700 42.8494  13.2691   5.189  0.67 0 0 0    164
 ED10   4.600 1 S
T1217  10.160 1 S
T1215  10.400 1 S
T1245   1.331 1 P
 CESI  10.981 1 S
 ED19   2.340 1 P
  MC2   3.811 1 S
 ED17   4.570 1 S
 ED17   2.510 1 P
 ED22   6.340 1 S
 MMO1   1.630 1 P
 ED20   6.330 1 S
 ED20   3.380 1 P
 ED16   1.250 1 P
 ED16   1.670 1 S
# 2016 10 14 03 29 47.340 42.8051  13.2422   4.964  0.57 0 0 0    165
 ED24   6.160 1 S
T1214   1.020 1 P
T1218   6.260 1 S
 ED11   6.850 1 S
 ED10   3.940 1 S
T1212   6.160 1 S
T1217   9.080 1 S
 NRCA   3.661 1 S
 NRCA   1.901 1 P
T1245   2.431 1 S
 ED19   5.420 1 S
 ED18   7.270 1 S
 ED21   8.520 1 S
 ED17   3.410 1 P
 ED17   6.340 1 S
 MMO1   4.500 1 S
 MMO1   2.370 1 P
 ED16   1.390 1 P
 ED16   2.850 1 S
 ED20   5.580 1 S
 TERO  11.450 1 S
T1246  10.160 1 S
# 2016 10 14 03 31 33.456 42.6742  13.1733  11.770  0.60 0 0 0    166
 ED01   6.614 1 S
T1218   3.814 1 S
T1218   2.094 1 P
 ED11   2.704 1 P
 ED11   4.914 1 S
T1217   7.184 1 S
T1212   5.394 1 S
 ED12   7.834 1 S
 NRCA   6.615 1 S
 ED10   4.854 1 S
T1245   7.845 1 S
T1214   4.964 1 S
T1214   2.614 1 P
 ED09   8.154 1 S
 ED20   7.494 1 S
 TERO  10.994 1 S
 ED07   4.444 1 P
 ED07   8.244 1 S
T1201   2.374 1 P
 SMA1   3.274 1 P
 SMA1   5.744 1 S
T1246   9.104 1 S
T1299   2.455 1 P
 ED25   6.674 1 S
 ED24   1.964 1 P
 ED14  10.744 1 S
 ED05   8.934 1 S
 ED03   2.344 1 P
 ED03   4.344 1 S
 RM33   6.804 1 S
# 2016 10 14 03 34 41.756 42.8625  13.1082   2.932  0.44 0 0 0    167
T1212   5.064 1 S
 FDMO   6.744 1 S
 CSP1   8.934 1 S
 ED19   1.514 1 P
 ED21   7.554 1 S
 ED17   3.494 1 P
 ED17   6.554 1 S
 MMO1   6.014 1 S
 MMO1   3.214 1 P
T1245   2.594 1 S
 NRCA   0.954 1 P
 NRCA   1.164 1 S
T1214   4.894 1 S
 ED10   3.564 1 S
 ED24   8.084 1 S
# 2016 10 14 03 35 25.599 42.8857  13.0705   3.096  0.30 0 0 0    168
 ED11   7.191 1 S
T1212   5.021 1 S
T1212   2.711 1 P
T1217   7.831 1 S
 ED12   2.311 1 P
T1215   6.451 1 S
T1216   1.481 1 S
T1216   1.211 1 P
 ED19   2.631 1 S
 MMO1   7.181 1 S
 ED10   4.821 1 S
 NRCA   1.311 1 P
 NRCA   2.451 1 S
 ED24   8.931 1 S
T1218   8.191 1 S
