# 2016 10 14 01 52 14.854 42.7693  13.1366  10.287  0.59 0 0 0    101
T1218   4.576 1 S
 ED11   2.576 1 P
 ED11   4.836 1 S
T1211  11.756 1 S
 ED02   8.236 1 S
T1217   6.356 1 S
T1212   3.916 1 S
T1212   2.126 1 P
 ED12   3.076 1 P
 ED12   5.226 1 S
T1216   6.046 1 S
 NRCA   3.936 1 S
 NRCA   2.086 1 P
 ED19   6.236 1 S
 ED21  10.096 1 S
T1245   4.816 1 S
T1245   2.546 1 P
 ED22  10.106 1 S
 ED17   8.486 1 S
 ED17   4.556 1 P
 MMO1   7.266 1 S
 ED10   1.606 1 P
 ED16   6.126 1 S
 ED20   4.126 1 P
 ED20   7.836 1 S
T1214   3.776 1 S
T1214   1.966 1 P
 ED07   9.926 1 S
T1246  11.136 1 S
T1202   2.406 1 P
T1202   4.706 1 S
T1299   7.306 1 S
 ED05  11.726 1 S
 ED24   2.656 1 P
 ED24   5.076 1 S
 ED03   6.786 1 S
# 2016 10 14 01 53 35.068 42.8977  13.2543   2.500  0.58 0 0 0    102
 ED03  11.232 1 S
T1218   9.462 1 S
 ED11   9.772 1 S
 ED02  13.352 1 S
T1212   8.062 1 S
T1217  11.022 1 S
T1245   2.123 1 S
 ED12   8.642 1 S
 ED19   3.522 1 S
  MC2   1.953 1 S
  MC2   1.293 1 P
 CESI  10.353 1 S
 CSP1   7.442 1 S
 ED18   3.802 1 S
 ED21   5.022 1 S
 ED22   4.782 1 S
 ED17   1.572 1 P
 ED17   3.002 1 S
 MMO1   1.173 1 P
 MMO1   2.263 1 S
 ED09   6.072 1 S
 ED20   7.272 1 S
T1246  12.952 1 S
 ED16   3.242 1 S
# 2016 10 14 01 55  6.734 42.8141  13.2179   4.500  0.43 0 0 0    103
 ED03   8.236 1 S
T1214   2.306 1 S
T1214   1.416 1 P
 ED02  10.756 1 S
 ED10   1.506 1 P
 ED10   2.806 1 S
 NRCA   3.216 1 S
T1245   1.226 1 P
T1245   2.186 1 S
 ED19   4.686 1 S
 FDMO   8.976 1 S
 ED18   6.876 1 S
 ED21   8.036 1 S
 ED17   6.066 1 S
 ED17   3.216 1 P
 MMO1   2.386 1 P
 MMO1   4.596 1 S
 ED16   3.226 1 S
 ED16   1.756 1 P
 ED20   6.296 1 S
T1246  10.806 1 S
# 2016 10 14 01 55 57.612 42.8978  13.2483   4.251  0.53 0 0 0    104
T1214   5.548 1 S
 ED24   9.448 1 S
 ED10   5.148 1 S
 ED10   2.668 1 P
T1245   1.218 1 P
T1212   7.608 1 S
 ED12   7.988 1 S
 ED19   1.618 1 P
 CESI  10.008 1 S
  MC2   2.208 1 S
 FDMO   6.668 1 S
 CSP1   7.558 1 S
 ED18   3.838 1 S
 ED21   5.038 1 S
 ED22   5.048 1 S
 ED17   3.328 1 S
 ED17   1.698 1 P
 MMO1   2.618 1 S
 MMO1   1.298 1 P
 ED09   3.498 1 P
 ED20   7.328 1 S
 ED16   3.308 1 S
# 2016 10 14 01 56 14.165 42.8541  13.2543  14.879  0.83 0 0 0    105
 RM33  12.345 1 S
T1202   7.165 1 S
 ED24   8.225 1 S
 ED01  12.445 1 S
T1214   5.715 1 S
 ED02  12.185 1 S
 ED11   8.815 1 S
 ED11   4.795 1 P
 ED10   5.535 1 S
T1212   7.575 1 S
 NRCA   5.345 1 S
T1215  10.775 1 S
T1245   2.545 1 P
T1245   4.815 1 S
 CESI  10.995 1 S
 ED19   5.675 1 S
 ED19   3.115 1 P
  MC2   5.395 1 S
 FDMO   8.665 1 S
 CSP1   5.085 1 P
 ED18   6.585 1 S
 ED18   3.595 1 P
 ED21   7.685 1 S
 ED21   4.025 1 P
 ED17   5.855 1 S
 ED17   3.225 1 P
 ED22   7.345 1 S
 MMO1   5.035 1 S
 MMO1   2.735 1 P
 ED09   6.355 1 S
 ED09   3.325 1 P
 ED20   3.825 1 P
 ED20   7.045 1 S
 TERO  12.495 1 S
 ED16   2.575 1 P
 ED16   4.855 1 S
 ED15  13.495 1 S
T1246  11.495 1 S
T1246   6.375 1 P
 ED07   9.935 1 S
 GIGS  15.695 1 S
 CAMP  12.115 1 S
 ED14  14.895 1 S
 ED25   9.995 1 S
 SMA1   8.765 1 S
 ED05  13.845 1 S
T1204   7.605 1 S
T1299   8.775 1 S
T1299   4.725 1 P
# 2016 10 14 02 01 16.906 42.6173  13.2629  11.160  0.74 0 0 0    106
 RM33   2.994 1 P
 RM33   4.664 1 S
 ED01   3.564 1 P
 ED01   6.444 1 S
 ED03   2.124 1 P
 ED02   8.974 1 S
 ED02   4.964 1 P
T1217  10.394 1 S
 ED11   3.904 1 P
 ED11   6.914 1 S
T1218   5.054 1 S
T1215   6.244 1 P
 ED24   2.184 1 P
T1212   7.694 1 S
 ED12   4.974 1 P
 ED10   7.444 1 S
 NRCA   5.124 1 P
T1202   2.684 1 P
T1202   5.174 1 S
T1201   2.034 1 P
 ED21   7.164 1 P
 ED17   6.714 1 P
 ED16   8.534 1 S
 MMO1   9.914 1 S
 ED09   4.244 1 P
T1204   2.304 1 P
T1204   4.094 1 S
 ED20   3.694 1 P
T1299   1.794 1 P
 SMA1   3.434 1 S
 SMA1   2.194 1 P
 ED07   3.374 1 P
 ED07   6.174 1 S
 TERO   4.914 1 P
T1246   6.754 1 S
T1246   3.774 1 P
 ED25   2.384 1 P
 GIGS  10.004 1 S
 ED14   8.394 1 S
 ED04   2.194 1 P
 ED04   3.874 1 S
 ED05   6.474 1 S
# 2016 10 14 02 01 51.205 43.0222  12.9752   9.829  0.58 0 0 0    107
 ED12   4.285 1 P
T1215   8.645 1 S
T1215   4.475 1 P
 CESI   3.705 1 S
 CESI   1.865 1 P
 CSP1   6.925 1 S
 FDMO   4.225 1 S
 FDMO   2.175 1 P
 ED21   8.095 1 S
 ED18   7.665 1 S
 ED17   9.105 1 S
 MMO1  10.375 1 S
 ED19   6.335 1 S
T1245   8.695 1 S
 NRCA   4.115 1 P
 NRCA   7.895 1 S
 ED10  10.065 1 S
T1216   5.595 1 S
T1216   2.895 1 P
# 2016 10 14 02 02  3.332 42.7828  13.1838   6.203  0.38 0 0 0    108
 ED02   4.878 1 P
 ED02   9.138 1 S
 ED11   5.798 1 S
T1217   7.388 1 S
T1212   2.278 1 P
 ED10   2.128 1 S
 ED10   1.148 1 P
 NRCA   3.258 1 S
 ED17   7.778 1 S
 ED09   6.508 1 S
 ED20   6.778 1 S
T1214   2.308 1 S
T1214   1.148 1 P
T1202   3.838 1 S
 ED24   3.168 1 P
 ED03   6.748 1 S
# 2016 10 14 02 02 15.955 42.8691  13.2370   3.827  0.66 0 0 0    109
T1202   6.745 1 S
 ED03   9.895 1 S
 ED24   8.175 1 S
T1214   4.565 1 S
T1218   8.245 1 S
 ED10   4.425 1 S
 ED10   2.375 1 P
 ED11   8.825 1 S
 ED02  12.315 1 S
T1212   6.885 1 S
T1217  10.085 1 S
 NRCA   3.925 1 S
 NRCA   2.035 1 P
T1245   1.105 1 P
 ED12   7.565 1 S
T1215  10.015 1 S
 CESI  10.225 1 S
 ED19   3.325 1 S
 ED19   1.915 1 P
 FDMO   7.705 1 S
  MC2   1.525 1 P
  MC2   2.285 1 S
 CSP1   8.405 1 S
 ED18   4.885 1 S
 ED18   2.565 1 P
 ED21   5.965 1 S
 ED22   5.885 1 S
 ED17   4.065 1 S
 ED17   2.145 1 P
 MMO1   1.485 1 P
 ED09   2.885 1 P
 ED16   2.385 1 S
 ED20   6.625 1 S
 TERO  12.615 1 S
 ED07  10.755 1 S
# 2016 10 14 02 03 10.812 42.6631  13.2927   4.771  0.42 0 0 0    110
T1299   0.898 1 P
 ED03   3.778 1 S
 ED24   1.718 1 P
T1201   0.998 1 P
 ED11   6.958 1 S
T1202   1.698 1 P
 ED10   6.068 1 S
 NRCA   7.849 1 S
 ED16   6.988 1 S
 ED09   6.138 1 S
T1204   1.358 1 S
T1204   1.038 1 P
 ED20   5.018 1 S
 ED20   2.678 1 P
 TERO   8.158 1 S
 ED07   5.058 1 S
 ED07   2.698 1 P
T1246   6.258 1 S
 SMA1   1.258 1 P
 ED25   1.938 1 P
 ED25   3.578 1 S
# 2016 10 14 02 04 24.456 42.8972  13.2404   3.057  1.45 0 0 0    111
T1202   4.044 1 P
T1202   7.824 1 S
 RM33   7.614 1 P
 RM33  13.854 1 S
 ED03   5.824 1 P
 ED03  10.864 1 S
T1214   2.804 1 P
T1214   5.634 1 S
 ED24   4.794 1 P
 ED24   9.364 1 S
 ED01   7.344 1 P
 ED01  13.464 1 S
 ED08  16.664 1 S
T1218   9.164 1 S
T1218   4.784 1 P
 ED10   2.794 1 P
 ED10   5.294 1 S
T1245   0.964 1 P
 ED11   4.964 1 P
 ED11   9.424 1 S
 ED02  12.884 1 S
 ED02   6.954 1 P
T1211   8.834 1 P
T1211  16.334 1 S
T1212   3.924 1 P
T1212   7.564 1 S
T1217   5.644 1 P
T1217  10.394 1 S
 NRCA   2.194 1 P
 ED12   4.104 1 P
 ED12   8.104 1 S
T1215   5.434 1 P
T1215  10.584 1 S
T1216   3.114 1 P
T1216   6.204 1 S
 ED19   1.364 1 P
  MC2   1.184 1 S
 CESI   9.884 1 S
 CESI   5.254 1 P
 FEMA   6.114 1 S
 FDMO   3.554 1 P
 CSP1   7.774 1 S
 CSP1   3.954 1 P
 ED18   2.014 1 P
 ED21   2.654 1 P
 ED21   5.104 1 S
 GUMA   7.384 1 S
 ED17   1.474 1 P
 MMO1   0.934 1 P
 ED09   6.314 1 S
 ED09   3.324 1 P
 TERO   7.164 1 P
 TERO  13.604 1 S
 ED20   3.994 1 P
 ED20   7.574 1 S
 ED16   1.784 1 P
 ED15   8.124 1 P
 ED15  15.014 1 S
T1246  13.144 1 S
T1246   6.854 1 P
 ED07  10.874 1 S
 ED07   6.084 1 P
 GIGS   9.464 1 P
 CAMP  13.284 1 S
 ED14   8.844 1 P
 ED14  16.534 1 S
 ED25   6.114 1 P
 SMA1  10.594 1 S
 SMA1   5.244 1 P
T1204   8.694 1 S
T1204   4.604 1 P
 ED05   8.044 1 P
 ED05  15.174 1 S
T1299   5.304 1 P
T1247  16.314 1 S
T1201   5.104 1 P
 ED06  15.234 1 S
# 2016 10 14 02 05 21.819 42.9248  13.0746   9.192  0.64 0 0 0    112
T1212   6.721 1 S
T1217   8.681 1 S
 ED12   3.061 1 P
 ED12   5.691 1 S
T1216   3.141 1 S
T1216   1.831 1 P
T1215   7.141 1 S
T1215   3.881 1 P
 CESI   3.121 1 P
 CESI   5.871 1 S
 FDMO   2.651 1 P
 FDMO   4.751 1 S
 CSP1   7.171 1 S
 ED21   3.661 1 P
 ED21   6.801 1 S
 ED18   3.061 1 P
 ED18   5.671 1 S
 ED22   7.761 1 S
 ED17   6.711 1 S
 ED17   3.571 1 P
 MMO1   7.131 1 S
 MMO1   3.801 1 P
 ED19   3.501 1 S
 ED19   1.851 1 P
 ED09  10.121 1 S
 ED16   7.491 1 S
T1245   4.941 1 S
 NRCA   2.321 1 P
 NRCA   4.491 1 S
# 2016 10 14 02 05 41.441 43.0167  12.9803   8.924  0.37 0 0 0    113
T1215   4.329 1 P
T1215   8.469 1 S
 CESI   1.669 1 P
 CESI   3.489 1 S
 CSP1   6.879 1 S
 FDMO   1.959 1 P
 FDMO   3.999 1 S
 ED21   7.899 1 S
 ED18   7.559 1 S
 ED17   8.899 1 S
 MMO1  10.199 1 S
 ED19   6.229 1 S
# 2016 10 14 02 06 35.308 42.8839  13.1449   5.460  0.22 0 0 0    114
 ED10   4.292 1 S
T1212   5.922 1 S
 NRCA   1.333 1 P
 NRCA   2.553 1 S
T1216   1.942 1 P
 ED19   1.002 1 P
 FDMO   3.392 1 P
 ED21   3.322 1 P
 ED21   6.332 1 S
  MC2   1.223 1 P
  MC2   2.443 1 S
 ED22   6.952 1 S
 ED17   2.812 1 P
 MMO1   2.702 1 P
T1245   1.243 1 P
T1245   2.533 1 S
# 2016 10 14 02 07 57.387 42.8222  13.2365   4.101  0.62 0 0 0    115
 RM33  11.723 1 S
T1202   2.723 1 P
T1202   5.263 1 S
 ED03   8.383 1 S
 ED24   3.653 1 P
 ED24   6.623 1 S
T1214   1.943 1 S
T1214   1.633 1 P
 ED01  11.463 1 S
T1218   6.723 1 S
 ED02  11.073 1 S
T1212   5.923 1 S
T1217   9.343 1 S
 ED12   3.703 1 P
 NRCA   1.794 1 P
T1216   3.303 1 P
T1245   1.224 1 P
 ED19   2.373 1 P
 ED19   4.463 1 S
 FDMO   4.513 1 P
  MC2   3.904 1 S
 CSP1   9.803 1 S
 ED18   6.163 1 S
 ED21   7.523 1 S
 ED22   7.613 1 S
 ED17   5.513 1 S
 ED17   2.983 1 P
 MMO1   2.183 1 P
 MMO1   4.013 1 S
 ED16   2.493 1 S
 ED09   5.403 1 S
 ED09   2.873 1 P
 ED20   3.203 1 P
 ED20   6.073 1 S
 TERO   6.303 1 P
 TERO  11.853 1 S
 ED07   9.403 1 S
 ED07   4.913 1 P
T1246   5.743 1 P
T1246  10.723 1 S
 CAMP  11.023 1 S
 ED14  14.233 1 S
 SMA1   4.103 1 P
 SMA1   7.603 1 S
 ED05  12.693 1 S
T1299   3.953 1 P
# 2016 10 14 02 10 14.465 42.8912  13.2354   1.441  0.71 0 0 0    116
 ED03  10.945 1 S
T1218   9.115 1 S
 ED10   2.495 1 P
 ED10   5.455 1 S
 ED11   9.825 1 S
T1212   7.605 1 S
T1245   0.995 1 P
T1245   1.325 1 S
T1217  10.575 1 S
 NRCA   2.295 1 P
 ED12   8.105 1 S
T1215  10.535 1 S
T1216   5.815 1 S
T1216   3.295 1 P
 ED19   1.685 1 P
  MC2   1.165 1 P
 FDMO   7.065 1 S
 CSP1   7.535 1 S
 ED18   4.225 1 S
 ED18   2.095 1 P
 ED21   2.955 1 P
 ED21   5.285 1 S
 ED22   4.945 1 S
 ED17   1.915 1 P
 MMO1   2.755 1 S
 MMO1   1.515 1 P
 ED09   6.375 1 S
 ED16   2.885 1 S
 ED20   7.555 1 S
 ED07  11.615 1 S
# 2016 10 14 02 11 27.273 42.5443  13.2352   2.500  0.34 0 0 0    117
 RM33   0.957 1 P
 RM33   1.217 1 S
 ED01   2.277 1 P
 ED01   4.307 1 S
T1218   5.637 1 S
 ED03   1.427 1 P
 ED03   2.627 1 S
 ED24   2.267 1 P
 ED24   4.617 1 S
T1299   2.097 1 P
T1299   3.937 1 S
 SMA1   4.287 1 S
 ED25   2.207 1 P
 ED25   4.017 1 S
 ED04   2.487 1 S
 ED07   3.487 1 P
 ED07   6.747 1 S
 ED05   2.257 1 P
 ED05   4.387 1 S
 ED14   6.757 1 S
# 2016 10 14 02 12 44.360 42.8876  13.2388   6.114  0.29 0 0 0    118
T1245   2.780 1 S
 NRCA   4.810 1 S
T1216   5.630 1 S
 ED19   1.870 1 P
 ED19   3.440 1 S
  MC2   2.390 1 S
 ED18   4.390 1 S
 ED21   5.600 1 S
 ED22   5.470 1 S
 ED17   3.690 1 S
 ED17   2.080 1 P
 MMO1   1.670 1 P
 MMO1   3.030 1 S
# 2016 10 14 02 13 30.947 42.8572  13.1600   2.500  0.39 0 0 0    119
T1212   2.713 1 P
T1212   5.173 1 S
 NRCA   0.883 1 P
 NRCA   1.743 1 S
 ED19   1.333 1 P
 ED19   2.533 1 S
 CSP1   9.563 1 S
 ED21   6.883 1 S
 ED22   7.283 1 S
 ED17   2.873 1 P
 ED17   5.623 1 S
 MMO1   2.513 1 P
 MMO1   5.003 1 S
 ED16   4.523 1 S
T1245   0.793 1 P
# 2016 10 14 02 13 46.695 42.6417  13.3332  10.303  0.63 0 0 0    120
 ED04   4.215 1 S
 RM33   6.465 1 S
 ED01   7.885 1 S
 ED03   4.895 1 S
 ED03   2.755 1 P
T1299   1.825 1 P
 ED24   2.725 1 P
 ED24   4.925 1 S
T1218   6.225 1 S
T1218   3.445 1 P
 ED11   4.435 1 P
 ED11   8.115 1 S
T1201   3.905 1 S
T1201   2.195 1 P
T1202   2.795 1 P
T1214   6.215 1 S
T1204   1.785 1 P
T1204   3.225 1 S
 ED18  12.555 1 S
 ED16   7.585 1 S
 MMO1   9.385 1 S
 ED22  12.925 1 S
 ED09   6.475 1 S
 ED09   3.535 1 P
 ED20   5.235 1 S
 ED20   2.915 1 P
 TERO   7.365 1 S
 TERO   4.065 1 P
 ED07   2.645 1 P
T1246   5.555 1 S
T1246   3.125 1 P
 GIGS   9.155 1 S
 CAMP   5.205 1 S
 ED14   8.135 1 S
 ED25   1.985 1 P
 ED25   3.675 1 S
 SMA1   1.655 1 P
 ED05   6.545 1 S
# 2016 10 14 02 16 43.781 42.6166  13.3634   7.500  0.31 0 0 0    121
T1299   1.849 1 P
T1299   3.349 1 S
T1201   4.439 1 S
 SMA1   2.309 1 S
 SMA1   1.229 1 P
T1204   1.689 1 P
T1204   3.539 1 S
 ED20   2.559 1 P
 ED07   1.869 1 P
T1246   4.269 1 S
 ED25   1.409 1 P
 ED25   2.429 1 S
# 2016 10 14 02 18 18.666 42.5691  13.2959   8.061  0.69 0 0 0    122
 RM33   3.654 1 S
 ED01   3.294 1 P
 ED02   9.774 1 S
 ED03   3.884 1 S
T1218   6.404 1 S
T1201   2.494 1 P
 ED21   8.664 1 P
T1299   1.935 1 P
T1204   2.624 1 P
T1241  10.234 1 S
 SMA1   3.724 1 S
 ED04   2.364 1 S
 ED25   1.684 1 P
 ED25   3.194 1 S
 ED07   2.974 1 P
 TERO   4.434 1 P
T1246   3.024 1 P
 ED14   6.504 1 S
 ED14   3.254 1 P
 ED05   2.224 1 P
 ED05   4.184 1 S
# 2016 10 14 02 19 36.102 42.7379  13.1852   2.500  1.20 0 0 0    123
 ED01   4.318 1 P
 ED01   8.618 1 S
T1218   1.588 1 P
T1211   6.008 1 P
 ED02   4.348 1 P
 ED02   8.558 1 S
 ARRO   6.718 1 P
 ED11   2.358 1 P
T1217   3.738 1 P
T1212   4.218 1 S
T1212   2.058 1 P
T1215   8.828 1 S
T1215   4.588 1 P
 ED12   3.228 1 P
 ED10   1.228 1 P
T1216   3.778 1 P
 CESI   6.408 1 P
 NRCA   2.198 1 P
 FDMO   5.788 1 P
 ED19   3.608 1 P
 ED19   7.028 1 S
  MC2   3.558 1 P
  MC2   6.918 1 S
T1245   5.148 1 S
T1245   2.438 1 P
 CSP1  12.658 1 S
 CSP1   6.668 1 P
 ED18   4.878 1 P
 ED18   9.468 1 S
 ED21   5.598 1 P
 ED21  10.778 1 S
 GUMA  12.928 1 S
 ED22  10.898 1 S
 ED17   8.858 1 S
 ED17   4.588 1 P
 MMO1   7.078 1 S
 MMO1   3.608 1 P
 ED16   5.468 1 S
 ED16   2.788 1 P
T1214   0.908 1 S
T1214   0.698 1 P
T1241   8.648 1 S
 ED09   3.428 1 P
 ED09   6.838 1 S
 ED20   6.738 1 S
 ED20   3.158 1 P
 TERO   6.018 1 P
 TERO  11.328 1 S
 ED07   4.448 1 P
 ED07   8.738 1 S
T1204   5.098 1 S
T1246   5.188 1 P
T1246   9.718 1 S
 ED15   6.428 1 P
 SMA1   3.268 1 P
 GIGS  13.508 1 S
 ED25   3.958 1 P
 ED25   7.718 1 S
T1202   1.368 1 S
T1202   1.068 1 P
 CAMP   9.308 1 S
T1299   2.868 1 P
 ED14   6.508 1 P
T1201   4.338 1 S
T1201   2.378 1 P
 ED05   5.548 1 P
 ED05  10.618 1 S
 RM33   4.438 1 P
 RM33   8.558 1 S
 ED24   1.788 1 P
 ED03   5.498 1 S
 ED03   2.788 1 P
# 2016 10 14 02 21  5.476 42.8714  13.2255   5.742  0.54 0 0 0    124
T1245   1.444 1 P
T1245   1.944 1 S
 FDMO   3.824 1 P
  MC2   2.954 1 S
 ED18   4.904 1 S
 ED21   6.034 1 S
 ED22   5.944 1 S
 ED17   4.124 1 S
 ED17   2.274 1 P
 MMO1   3.114 1 S
 MMO1   1.724 1 P
 ED09   6.304 1 S
 ED16   3.344 1 S
 ED20   7.384 1 S
# 2016 10 14 02 21 17.932 42.7374  13.2082   4.896  0.54 0 0 0    125
 ED03   5.428 1 S
 ED24   1.728 1 P
 ED24   3.578 1 S
T1218   4.138 1 S
T1218   2.018 1 P
 ED02   8.818 1 S
 ED02   4.658 1 P
 ED11   2.708 1 P
T1215   9.438 1 S
 ED10   2.468 1 S
 ED18   9.528 1 S
T1214   0.708 1 P
 ED17   8.938 1 S
 ED16   5.168 1 S
 ED09   6.128 1 S
 ED20   3.048 1 P
 ED20   5.928 1 S
 ED07   8.158 1 S
T1246   9.238 1 S
T1202   2.238 1 S
T1202   1.098 1 P
T1201   2.218 1 P
# 2016 10 14 02 21 58.658 42.8678  13.0779   3.884  0.35 0 0 0    126
T1212   2.462 1 P
T1212   4.632 1 S
 ED11   7.062 1 S
T1216   2.272 1 S
 FDMO   3.492 1 P
 FDMO   6.432 1 S
 ED19   1.552 1 P
 ED19   2.992 1 S
 ED17   3.742 1 P
 ED17   7.182 1 S
 MMO1   6.812 1 S
 NRCA   1.922 1 S
 ED24   8.342 1 S
T1218   7.402 1 S
# 2016 10 14 02 23 24.411 42.9120  13.2696   1.500  0.30 0 0 0    127
T1245   1.739 1 P
T1245   3.249 1 S
  MC2   2.199 1 S
 ED18   3.249 1 S
 CSP1   7.149 1 S
 ED21   2.409 1 P
 ED21   4.499 1 S
 ED22   4.339 1 S
 ED17   1.299 1 P
 MMO1   1.429 1 S
 MMO1   1.159 1 P
 ED09   6.199 1 S
 ED20   7.469 1 S
 ED16   3.609 1 S
# 2016 10 14 02 24 55.735 42.7996  13.1941   5.209  0.59 0 0 0    128
 ED02   9.815 1 S
 ED10   1.245 1 P
 ED10   2.395 1 S
T1212   4.775 1 S
 NRCA   1.615 1 P
 NRCA   2.545 1 S
 ED19   5.075 1 S
T1245   2.875 1 S
 ED18   7.615 1 S
 ED17   6.895 1 S
 MMO1   5.265 1 S
 ED16   3.885 1 S
 ED20   6.385 1 S
T1214   2.185 1 S
T1214   1.335 1 P
 ED24   5.775 1 S
 ED03   7.475 1 S
# 2016 10 14 02 28 49.226 42.6603  13.2325  12.500  0.49 0 0 0    129
 ED03   2.484 1 P
 ED03   4.084 1 S
 ED01   6.944 1 S
 ED24   2.264 1 P
 ED24   3.734 1 S
T1218   4.904 1 S
T1218   2.434 1 P
 ED11   6.724 1 S
T1212   5.714 1 S
 ED10   6.514 1 S
 ED10   3.264 1 P
 NRCA   8.194 1 S
  MC2   8.284 1 S
T1214   5.484 1 S
T1202   4.694 1 S
 MMO1   8.424 1 S
 ED16   8.254 1 S
 ED09   4.454 1 P
 ED20   6.964 1 S
T1204   4.314 1 S
 TERO   9.784 1 S
 TERO   5.534 1 P
 ED07   4.024 1 P
 ED07   6.994 1 S
 SMA1   4.504 1 S
 SMA1   2.804 1 P
T1246   7.764 1 S
T1299   3.624 1 S
 ED25   3.074 1 P
 ED25   5.374 1 S
 ED14   9.654 1 S
 ED05   7.774 1 S
# 2016 10 14 02 30 46.810 42.8031  13.2075   5.560  0.63 0 0 0    130
 ED03   7.440 1 S
 ED24   6.150 1 S
T1214   1.260 1 P
T1214   2.460 1 S
 ED01  10.270 1 S
T1218   5.930 1 S
 ED02   9.980 1 S
 ED11   6.510 1 S
T1217   8.220 1 S
T1212   4.940 1 S
T1212   2.660 1 P
 ED10   1.310 1 P
 ED12   6.320 1 S
 ED12   3.300 1 P
 NRCA   1.580 1 P
 CESI  10.980 1 S
 ED19   4.970 1 S
 ED19   2.590 1 P
T1245   2.250 1 S
 FDMO   9.050 1 S
 CSP1  10.920 1 S
 ED21   8.610 1 S
 ED22   8.880 1 S
 ED17   6.500 1 S
 MMO1   5.060 1 S
 ED16   1.880 1 P
 ED16   3.740 1 S
 ED09   3.020 1 P
 ED20   6.240 1 S
 ED20   3.270 1 P
 TERO   6.180 1 P
 ED07   9.100 1 S
 ED07   4.690 1 P
T1246  10.450 1 S
T1246   5.530 1 P
 ED05  11.980 1 S
T1201   6.320 1 S
T1202   4.560 1 S
# 2016 10 14 02 31 46.558 42.7473  13.1821   4.323  0.25 0 0 0    131
T1218   3.882 1 S
 ED02   4.392 1 P
 ED11   2.452 1 P
 ED11   5.042 1 S
T1212   2.082 1 P
T1212   3.922 1 S
T1215   8.552 1 S
 ED10   1.222 1 P
 ED10   2.032 1 S
 NRCA   3.882 1 S
 NRCA   2.042 1 P
 ED17   8.862 1 S
 MMO1   7.472 1 S
T1214   1.002 1 P
T1214   1.252 1 S
 ED09   3.522 1 P
 ED20   3.592 1 P
 ED20   6.882 1 S
T1246   9.842 1 S
T1202   1.372 1 P
T1202   2.922 1 S
 ED24   1.962 1 P
 ED24   3.572 1 S
# 2016 10 14 02 33 17.019 42.8871  13.2400   6.500  0.46 0 0 0    132
T1214   5.411 1 S
T1218   7.871 1 S
T1245   1.571 1 P
 NRCA   2.491 1 P
 ED19   1.981 1 P
 ED19   3.501 1 S
  MC2   2.601 1 S
 FDMO   7.061 1 S
 FDMO   3.721 1 P
 CSP1   7.821 1 S
 ED18   2.261 1 P
 ED18   4.231 1 S
 ED21   5.351 1 S
 ED22   5.471 1 S
 ED17   1.971 1 P
 ED17   3.601 1 S
 MMO1   1.561 1 P
 ED20   4.041 1 P
 ED20   7.731 1 S
 ED16   3.471 1 S
# 2016 10 14 02 36  6.011 42.5595  13.2939   6.500  0.43 0 0 0    133
 RM33   3.439 1 S
 ED01   3.109 1 P
 ED01   5.949 1 S
T1218   6.229 1 S
 ED24   2.679 1 P
 ED24   4.899 1 S
T1201   2.349 1 P
T1299   1.760 1 P
T1299   3.359 1 S
 SMA1   1.919 1 P
 SMA1   3.499 1 S
 ED04   2.209 1 S
 ED25   1.479 1 P
 ED07   2.789 1 P
T1246   2.849 1 P
 ED14   6.059 1 S
 ED14   3.069 1 P
 ED05   2.039 1 P
 ED05   3.859 1 S
# 2016 10 14 02 40 37.644 42.8431  13.2107   2.397  0.49 0 0 0    134
T1214   3.676 1 S
 NRCA   2.266 1 S
 NRCA   1.696 1 P
T1245   0.606 1 P
 ED19   1.936 1 P
 ED19   3.746 1 S
  MC2   1.536 1 P
  MC2   2.966 1 S
 ED18   6.126 1 S
 ED21   6.966 1 S
 ED22   7.096 1 S
 ED17   2.676 1 P
 MMO1   1.976 1 P
 MMO1   3.766 1 S
 ED16   2.786 1 S
 ED20   7.146 1 S
T1202   2.946 1 P
# 2016 10 14 02 41 52.423 42.9282  13.1751   5.385  0.31 0 0 0    135
 NRCA   4.087 1 S
T1212   7.527 1 S
 ED19   1.147 1 P
 ED19   1.437 1 S
T1216   4.957 1 S
 FDMO   5.197 1 S
 CSP1   2.927 1 P
 ED21   2.537 1 P
 ED21   4.877 1 S
 ED18   1.837 1 P
 ED22   5.327 1 S
 ED17   2.127 1 P
 ED17   4.057 1 S
 MMO1   4.407 1 S
  MC2   1.097 1 P
  MC2   2.237 1 S
T1214   6.397 1 S
T1245   3.337 1 S
# 2016 10 14 02 42 35.906 42.8471  13.2188   6.500  0.44 0 0 0    136
T1214   1.634 1 P
 NRCA   3.824 1 S
T1245   1.144 1 P
 ED19   2.304 1 P
 ED19   3.534 1 S
  MC2   3.154 1 S
  MC2   1.804 1 P
 ED18   5.654 1 S
 ED17   5.374 1 S
 ED17   2.984 1 P
 MMO1   2.354 1 P
 MMO1   3.374 1 S
 ED16   3.684 1 S
