# 2016 10 14 00 00  9.050 42.8128  13.2100   8.500  0.92 0 0 0      1
 ED24   3.280 1 P
 ED24   6.570 1 S
 ED03   8.010 1 S
 ED01  10.690 1 S
 ED01   5.840 1 P
T1218   5.610 1 S
T1218   3.360 1 P
T1211  13.480 1 S
 ED02  10.500 1 S
 ED02   5.690 1 P
 ED11   3.620 1 P
 ED11   6.870 1 S
 ED10   1.580 1 P
T1212   2.940 1 P
T1212   5.470 1 S
T1217   8.520 1 S
T1215   4.880 1 P
 ED12   3.510 1 P
 NRCA   1.751 1 P
T1216   3.250 1 P
T1216   6.230 1 S
 CESI  10.651 1 S
 ED19   2.590 1 P
 ED19   4.750 1 S
 FDMO   8.570 1 S
 FDMO   4.690 1 P
  MC2   4.341 1 S
 CSP1  10.690 1 S
 ED18   3.620 1 P
 ED18   7.110 1 S
 ED22   4.540 1 P
 ED22   8.410 1 S
 ED17   3.330 1 P
 ED17   6.190 1 S
 MMO1   4.750 1 S
 MMO1   2.540 1 P
 ED16   1.850 1 P
 ED09   6.740 1 S
 ED09   3.060 1 P
 ED20   3.280 1 P
T1243   7.601 1 S
T1243   3.941 1 P
 TERO   6.380 1 P
 ED07   4.880 1 P
 ED07   9.620 1 S
T1246   5.760 1 P
T1246  10.770 1 S
 ED23   2.160 1 P
 ED23   4.240 1 S
 ED15   6.890 1 P
 GIGS  15.180 1 S
T1204   3.280 1 P
T1204   6.430 1 S
 CAMP  10.730 1 S
 CAMP   5.780 1 P
 SMA1   4.000 1 P
 ED25   4.960 1 P
 ED25   9.090 1 S
 ED14  13.830 1 S
 ED14   7.350 1 P
 ED05  12.380 1 S
 ED05   6.570 1 P
T1299   3.850 1 P
T1201   6.750 1 S
T1202   4.840 1 S
T1202   2.560 1 P
T1214   1.540 1 P
 RM33  10.830 1 S
# 2016 10 14 00 01 50.165 42.7364  13.1929   3.500  0.61 0 0 0      2
T1218   1.415 1 P
T1218   3.635 1 S
 ED02   4.455 1 P
 ED02   8.545 1 S
 ED11   2.485 1 P
T1217   7.475 1 S
T1212   2.195 1 P
T1215   8.835 1 S
 ED12   3.375 1 P
 ED12   6.485 1 S
 ED10   2.325 1 S
 ED10   1.195 1 P
 NRCA   2.525 1 P
 ED22  11.005 1 S
 ED17   8.875 1 S
 ED17   4.715 1 P
 MMO1   7.025 1 S
 ED16   5.295 1 S
T1214   0.845 1 P
T1241   7.855 1 S
 ED09   6.695 1 S
 ED09   3.475 1 P
T1244   1.675 1 P
 ED20   6.625 1 S
 ED20   3.345 1 P
 ED23   1.795 1 P
T1243   6.995 1 S
T1243   3.715 1 P
 TERO  11.085 1 S
 ED07   8.495 1 S
T1246   9.545 1 S
 ED25   7.435 1 S
T1202   1.105 1 P
T1202   1.335 1 S
T1201   2.255 1 P
 RM33   8.785 1 S
 ED24   1.675 1 P
 ED03   5.285 1 S
# 2016 10 14 00 02 37.371 42.6584  13.2874  11.858  0.63 0 0 0      3
T1299   1.989 1 P
 RM33   6.529 1 S
 ED01   4.199 1 P
 ED01   7.749 1 S
 ED03   2.619 1 P
T1211  11.929 1 S
 ED02   9.629 1 S
 ED24   2.399 1 P
T1201   3.709 1 S
T1201   2.039 1 P
T1218   3.089 1 P
T1218   5.469 1 S
 ED11   7.059 1 S
 ED11   4.029 1 P
T1217   9.539 1 S
T1215  11.899 1 S
T1212   7.519 1 S
 ED12  10.479 1 S
T1202   4.729 1 S
T1202   2.449 1 P
 ED10   6.389 1 S
T1214   5.649 1 S
 ED23   4.599 1 S
 ED23   2.629 1 P
 ED17  11.319 1 S
 ED16   7.409 1 S
 MMO1   9.159 1 S
 ED09   6.599 1 S
T1204   1.939 1 P
 ED20   5.619 1 S
T1243   3.009 1 P
T1243   5.359 1 S
 TERO   8.519 1 S
 TERO   4.749 1 P
 ED07   5.819 1 S
 ED07   3.249 1 P
T1246   3.779 1 P
T1246   6.409 1 S
 ED15   9.239 1 S
 SMA1   2.079 1 P
 GIGS  10.479 1 S
 ED25   2.489 1 P
 ED25   4.519 1 S
 CAMP   6.199 1 S
 ED14   9.029 1 S
 ED05   7.589 1 S
 ED04   4.709 1 S
# 2016 10 14 00 03 19.739 42.8141  13.1548   6.206  0.59 0 0 0      4
 ED02   9.661 1 S
 ED11   5.971 1 S
 ED10   2.361 1 S
 ED10   1.261 1 P
T1212   2.201 1 P
T1212   4.161 1 S
T1217   7.641 1 S
T1215   3.981 1 P
 NRCA   2.231 1 S
 ED19   4.411 1 S
 ED18   7.171 1 S
 ED21   8.401 1 S
 ED17   6.841 1 S
 ED17   3.681 1 P
 MMO1   5.831 1 S
 ED16   4.871 1 S
 ED09   3.791 1 P
 ED20   7.751 1 S
T1214   3.311 1 S
# 2016 10 14 00 03 42.773 42.8097  13.2147   5.329  0.42 0 0 0      5
T1214   2.767 1 S
T1217   8.707 1 S
T1212   2.857 1 P
T1212   5.357 1 S
 ED10   1.517 1 P
 ED10   2.767 1 S
 NRCA   1.647 1 P
 NRCA   3.117 1 S
 ED19   4.737 1 S
T1245   2.507 1 S
T1245   1.337 1 P
 FDMO   8.877 1 S
 ED17   6.457 1 S
 MMO1   4.717 1 S
 ED16   3.467 1 S
 ED09   3.007 1 P
 ED20   3.317 1 P
# 2016 10 14 00 04 25.658 42.5698  13.2812  12.500  0.69 0 0 0      6
 RM33   3.702 1 S
 ED08   8.242 1 S
 ED01   6.472 1 S
 ED01   3.622 1 P
T1211  11.282 1 S
 ED02   9.582 1 S
T1217  10.552 1 S
 ED03   4.582 1 S
 ED03   2.592 1 P
 ED11   8.282 1 S
T1218   5.992 1 S
 ED12  11.522 1 S
T1212   5.472 1 P
T1212   9.042 1 S
 ED24   3.002 1 P
 ED24   5.232 1 S
 ED10   8.362 1 S
 NRCA  10.312 1 S
T1202   3.602 1 P
T1202   6.502 1 S
T1201   2.862 1 P
T1201   5.142 1 S
 ED23   4.012 1 P
 ED23   7.082 1 S
T1299   2.472 1 P
 ED16  10.002 1 S
 MMO1  11.632 1 S
T1204   2.992 1 P
T1204   5.172 1 S
 ED09   4.922 1 P
 ED09   8.902 1 S
 SMA1   2.652 1 P
 SMA1   4.652 1 S
 ED20   4.252 1 P
 ED20   7.622 1 S
 ED04   2.292 1 P
T1243   3.812 1 P
T1243   6.902 1 S
 ED25   2.512 1 P
 ED25   4.532 1 S
 ED07   3.502 1 P
 TERO   4.832 1 P
 TERO   8.712 1 S
T1246   6.502 1 S
T1246   3.652 1 P
 ED15   7.902 1 S
 ED15   4.372 1 P
 CAMP   5.162 1 S
 ED14   6.742 1 S
 ED14   3.972 1 P
 ED05   5.612 1 S
# 2016 10 14 00 04 52.929 42.8893  13.2416   3.010  0.78 0 0 0      7
T1202   7.611 1 S
 ED03  10.751 1 S
 ED24   9.401 1 S
T1214   5.521 1 S
 ED01  14.021 1 S
T1218   9.011 1 S
 ED10   5.211 1 S
 ED11   9.271 1 S
 ED02  12.941 1 S
T1212   7.491 1 S
T1217  10.621 1 S
T1245   1.251 1 P
 ED12   7.801 1 S
T1215  10.301 1 S
T1216   3.241 1 P
T1216   6.141 1 S
 CESI   9.731 1 S
 ED19   1.641 1 P
  MC2   1.141 1 P
 FDMO   6.671 1 S
 ED18   2.111 1 P
 ED18   4.101 1 S
 ED21   5.051 1 S
 ED21   2.771 1 P
 GUMA   7.551 1 S
 ED22   5.191 1 S
 ED22   2.751 1 P
 ED17   1.801 1 P
 ED17   3.291 1 S
 MMO1   1.361 1 P
 ED09   6.181 1 S
 ED09   3.151 1 P
 ED20   7.281 1 S
 ED20   3.831 1 P
 ED16   1.671 1 P
 ED16   2.131 1 S
 TERO  13.311 1 S
T1246  12.651 1 S
 ED07  11.351 1 S
 GIGS  17.441 1 S
 CAMP  13.201 1 S
 ED05  15.071 1 S
# 2016 10 14 00 05 17.494 42.7409  13.1790   6.338  0.45 0 0 0      8
 ED01   8.286 1 S
T1218   3.876 1 S
 ED02   8.346 1 S
 ED11   2.446 1 P
T1217   7.096 1 S
T1212   4.066 1 S
T1212   2.086 1 P
T1215   8.436 1 S
 ED12   3.386 1 P
 ED12   6.136 1 S
T1214   0.866 1 P
T1244   2.326 1 P
 ED23   3.846 1 S
 TERO   5.976 1 P
T1246   9.786 1 S
T1202   2.506 1 S
T1202   1.376 1 P
 ED25   7.616 1 S
T1201   2.376 1 P
 ED24   3.666 1 S
 ED24   1.776 1 P
# 2016 10 14 00 05 38.006 42.8821  13.2475   2.584  0.22 0 0 0      9
T1202   7.484 1 S
 ED10   4.714 1 S
T1245   2.254 1 S
T1245   1.034 1 P
 NRCA   4.024 1 S
 ED19   1.694 1 P
 ED19   3.284 1 S
  MC2   2.414 1 S
 CSP1   8.524 1 S
 ED18   4.434 1 S
 ED21   5.424 1 S
 ED17   3.534 1 S
 MMO1   1.224 1 P
 MMO1   2.554 1 S
 ED20   6.894 1 S
 ED16   2.804 1 S
# 2016 10 14 00 05 55.997 42.7405  13.1797   5.198  0.47 0 0 0     10
T1218   1.943 1 P
T1218   3.113 1 S
 ED02   8.503 1 S
 ED11   2.563 1 P
 ED12   6.343 1 S
 ED10   2.253 1 S
T1214   0.893 1 P
 ED20   6.743 1 S
 ED23   1.923 1 P
 ED23   3.803 1 S
T1243   7.133 1 S
 ED07   8.703 1 S
T1202   1.463 1 P
T1202   2.483 1 S
 ED24   1.803 1 P
 ED24   3.603 1 S
# 2016 10 14 00 08  0.118 42.6524  13.2230   9.903  0.54 0 0 0     11
 RM33   5.812 1 S
 ED03   2.002 1 P
 ED03   3.362 1 S
 ED01   3.602 1 P
 ED01   6.382 1 S
 ED02   4.652 1 P
 ED24   1.622 1 P
 ED24   3.112 1 S
T1218   3.762 1 S
T1218   2.232 1 P
 ED11   3.172 1 P
 ED11   5.832 1 S
T1212   6.252 1 S
T1212   3.682 1 P
 ED10   5.832 1 S
 NRCA   7.482 1 S
T1245   7.422 1 S
T1202   4.052 1 S
T1202   1.982 1 P
 ED23   2.902 1 P
 ED23   5.052 1 S
 ED09   3.892 1 P
T1204   3.892 1 S
T1201   1.652 1 P
 TERO   9.632 1 S
 TERO   5.332 1 P
 ED07   3.562 1 P
 ED07   6.902 1 S
 SMA1   4.182 1 S
T1246   7.492 1 S
T1246   4.272 1 P
T1299   1.752 1 P
 ED25   2.962 1 P
 ED25   5.022 1 S
 ED14   9.592 1 S
 ED05   7.592 1 S
# 2016 10 14 00 08 30.500 42.7755  13.1800   8.500  0.65 0 0 0     12
T1218   2.650 1 P
T1218   4.620 1 S
 ED02   5.310 1 P
 ED02   9.260 1 S
 ED11   3.300 1 P
T1212   5.100 1 S
 ED10   1.980 1 P
T1215   4.210 1 P
 ED12   2.960 1 P
 ED12   5.290 1 S
 NRCA   1.930 1 P
T1245   4.190 1 S
 ED18   4.260 1 P
 ED21   5.010 1 P
 ED21   8.720 1 S
 ED17   4.550 1 P
T1241   7.250 1 S
 ED09   4.140 1 P
 ED09   7.440 1 S
 ED20   4.100 1 P
 ED20   7.220 1 S
T1243   7.760 1 S
 TERO  11.930 1 S
 ED07   9.410 1 S
T1246  10.330 1 S
T1214   1.520 1 P
 ED25   8.250 1 S
 ED05  11.300 1 S
T1201   2.980 1 P
T1202   3.030 1 S
T1202   1.890 1 P
 RM33   9.520 1 S
 ED24   2.440 1 P
 ED03   3.530 1 P
# 2016 10 14 00 09  2.655 42.6868  13.3122  13.404  0.48 0 0 0     13
T1299   2.555 1 P
T1299   4.415 1 S
T1201   2.585 1 P
T1201   4.645 1 S
 ED03   5.755 1 S
 ED24   5.265 1 S
T1218   6.335 1 S
 ED11   8.005 1 S
T1202   2.705 1 P
 ED10   2.795 1 P
 ED16   6.825 1 S
 ED20   5.185 1 S
T1243   5.265 1 S
 ED07   5.715 1 S
 ED07   3.395 1 P
T1246   7.005 1 S
T1204   2.255 1 P
 SMA1   4.335 1 S
 SMA1   2.495 1 P
 ED25   2.915 1 P
 ED25   5.255 1 S
# 2016 10 14 00 10 23.874 42.7474  13.1880   2.181  0.77 0 0 0     14
 ED01   9.126 1 S
T1218   4.106 1 S
T1218   2.026 1 P
 ED02   4.586 1 P
 ED02   8.646 1 S
 ED11   2.616 1 P
T1217   7.166 1 S
T1212   4.316 1 S
T1212   2.256 1 P
T1215   8.676 1 S
T1215   4.656 1 P
 ED12   3.516 1 P
 ED12   6.036 1 S
 ED10   0.586 1 P
T1216   7.136 1 S
 CESI  11.556 1 S
 NRCA   3.916 1 S
 NRCA   2.146 1 P
 ED19   6.866 1 S
  MC2   7.116 1 S
T1245   3.746 1 S
 CSP1   6.746 1 P
 CSP1  12.576 1 S
 ED18   9.386 1 S
 ED21  10.566 1 S
 GUMA  12.976 1 S
 ED22  10.636 1 S
 ED17   4.536 1 P
 ED17   8.746 1 S
 MMO1   3.616 1 P
 MMO1   7.026 1 S
 ED16   2.716 1 P
 ED16   5.236 1 S
T1214   0.506 1 P
T1214   0.826 1 S
 ED09   3.506 1 P
 ED09   6.866 1 S
 ED20   3.486 1 P
 ED20   6.676 1 S
T1243   3.766 1 P
T1243   7.216 1 S
 TERO  11.466 1 S
 TERO   6.036 1 P
 ED07   4.616 1 P
 ED07   8.566 1 S
T1204   2.626 1 P
T1204   5.036 1 S
T1246   9.916 1 S
T1246   5.296 1 P
 ED15  13.116 1 S
 ED25   7.826 1 S
T1202   1.566 1 S
 CAMP   9.526 1 S
 ED14   6.746 1 P
 ED14  12.466 1 S
T1201   4.626 1 S
 ED05  10.786 1 S
 RM33   9.086 1 S
 ED24   1.886 1 P
 ED03   2.986 1 P
# 2016 10 14 00 12 10.167 42.7385  13.1902   2.292  1.46 0 0 0     15
 ED01   4.323 1 P
 ED01   8.643 1 S
 ED08   5.683 1 P
T1218   1.823 1 P
T1211   6.093 1 P
T1211  11.783 1 S
 ED02   8.673 1 S
 ED02   4.433 1 P
 ARRO   6.633 1 P
 ED11   2.263 1 P
T1217   3.743 1 P
T1212   1.993 1 P
T1215   4.673 1 P
T1215   9.193 1 S
 ED12   3.343 1 P
T1216   7.133 1 S
T1216   3.873 1 P
 CESI   6.463 1 P
 CESI  12.023 1 S
 ED10   0.733 1 P
 NRCA   2.283 1 P
 FDMO   5.873 1 P
 ED19   3.803 1 P
 ED19   7.123 1 S
  MC2   3.623 1 P
  MC2   7.223 1 S
 CSP1  13.053 1 S
 CSP1   6.733 1 P
 ED18   4.943 1 P
 ED18   9.723 1 S
 ED21   5.583 1 P
 ED21  10.773 1 S
 GUMA   6.973 1 P
 GUMA  13.073 1 S
 ED22  10.833 1 S
 ED17   8.973 1 S
 ED17   4.573 1 P
 MMO1   7.173 1 S
 MMO1   3.633 1 P
T1214   0.513 1 S
T1214   0.293 1 P
 ED16   5.353 1 S
 ED16   2.723 1 P
 ED09   3.363 1 P
 ED09   6.833 1 S
 ED20   6.613 1 S
 ED20   3.283 1 P
T1243   7.123 1 S
T1243   3.723 1 P
 TERO  11.293 1 S
 TERO   5.973 1 P
 ED07   8.733 1 S
 ED07   4.383 1 P
T1204   2.443 1 P
T1204   4.823 1 S
T1246   9.723 1 S
T1246   5.143 1 P
 ED15  12.113 1 S
 ED15   6.373 1 P
 SMA1   3.133 1 P
 GIGS   7.363 1 P
T1202   1.253 1 P
 ED25   3.723 1 P
 ED25   7.503 1 S
 CAMP   9.133 1 S
 CAMP   5.073 1 P
T1299   2.823 1 P
T1201   2.293 1 P
T1201   4.463 1 S
 ED14  12.133 1 S
 ED14   6.413 1 P
 ED05  10.503 1 S
 ED05   5.493 1 P
 ED04   7.303 1 S
 ED04   3.953 1 P
T1247  11.483 1 S
 ED06  10.023 1 S
 ED06   5.573 1 P
 RM33   4.503 1 P
 RM33   8.463 1 S
 ED24   1.653 1 P
 ED03   2.793 1 P
 ED03   5.503 1 S
# 2016 10 14 00 14 43.592 42.8181  13.3531  15.399  0.67 0 0 0     16
 SMA1   7.698 1 S
T1299   8.088 1 S
 ED24   4.478 1 P
 ED24   8.188 1 S
T1215  12.658 1 S
 ED12  10.498 1 S
 NRCA   7.208 1 S
T1245   6.378 1 S
 ED16   5.088 1 S
 ED19   7.568 1 S
 ED18   7.868 1 S
 CSP1  10.948 1 S
 ED21   8.518 1 S
 ED17   6.678 1 S
 MMO1   5.358 1 S
 ED22   8.148 1 S
 ED09   2.518 1 P
 TERO   5.588 1 P
 ED20   2.888 1 P
T1246   9.628 1 S
T1246   5.138 1 P
 ED07   8.368 1 S
 ED07   4.458 1 P
 ED25   8.738 1 S
# 2016 10 14 00 16 15.649 42.8528  13.2490   2.464  0.37 0 0 0     17
T1214   4.231 1 S
 ED10   2.261 1 P
 ED10   4.211 1 S
T1245   1.572 1 S
 ED19   2.171 1 P
 ED19   4.111 1 S
 ED18   5.531 1 S
 ED17   4.531 1 S
 MMO1   1.512 1 P
 MMO1   2.972 1 S
 ED16   2.101 1 S
 ED20   6.311 1 S
# 2016 10 14 00 17 10.347 42.8436  13.1615   5.090  0.89 0 0 0     18
 ED10   1.493 1 P
 ED11   3.873 1 P
T1212   2.643 1 P
T1212   4.223 1 S
 ED12   3.033 1 P
 ED12   5.573 1 S
T1215   4.193 1 P
 NRCA   0.773 1 P
T1216   2.573 1 P
T1216   4.153 1 S
 CESI   8.883 1 S
 ED19   1.483 1 P
  MC2   3.193 1 S
  MC2   1.533 1 P
 ED21   3.783 1 P
 ED21   7.403 1 S
 ED22   7.573 1 S
T1245   0.623 1 P
 ED17   3.063 1 P
 ED17   7.223 1 S
 MMO1   5.163 1 S
 MMO1   2.623 1 P
 ED16   2.483 1 P
 ED09   7.073 1 S
 ED09   3.953 1 P
 ED20   7.673 1 S
 ED20   4.273 1 P
 TERO  13.433 1 S
 TERO   7.333 1 P
 ED07   6.043 1 P
T1246   6.733 1 P
T1246  12.133 1 S
 ED05  14.233 1 S
T1214   2.183 1 P
T1202   3.243 1 P
T1202   6.373 1 S
 ED24   4.033 1 P
# 2016 10 14 00 19 50.263 42.8189  13.3493  16.652  0.81 0 0 0     19
 SMA1   4.307 1 P
 SMA1   7.507 1 S
T1204   3.807 1 P
T1204   6.937 1 S
T1299   4.518 1 P
T1299   8.187 1 S
T1201   8.017 1 S
 ED24   4.567 1 P
 ED24   8.677 1 S
T1202   3.977 1 P
T1202   7.447 1 S
T1218   4.867 1 P
T1218   9.097 1 S
T1214   3.507 1 P
T1214   6.487 1 S
 ED11   5.397 1 P
 ED11  10.147 1 S
T1217  11.757 1 S
T1212   9.127 1 S
T1212   4.937 1 P
T1215  12.747 1 S
 ED12  10.337 1 S
 NRCA   7.358 1 S
T1216   9.517 1 S
T1245   6.518 1 S
T1245   3.488 1 P
 CESI  13.328 1 S
 ED16   2.807 1 P
 ED16   5.237 1 S
 ED19   4.227 1 P
 ED19   7.737 1 S
  MC2   7.298 1 S
 FDMO  10.587 1 S
 FDMO   5.727 1 P
 ED18   4.347 1 P
 ED18   8.057 1 S
 CSP1  10.937 1 S
 ED21   4.657 1 P
 ED21   8.647 1 S
 ED17   3.677 1 P
 ED17   6.867 1 S
 MMO1   2.988 1 P
 MMO1   5.528 1 S
 ED22   8.357 1 S
 GUMA   9.948 1 S
 ED09   2.707 1 P
 ED09   5.157 1 S
 TERO   5.467 1 P
 TERO  10.387 1 S
 ED20   5.797 1 S
 ED20   2.987 1 P
 ED15  12.427 1 S
T1246   9.817 1 S
T1246   5.337 1 P
 GIGS  13.827 1 S
 ED07   8.467 1 S
 ED07   4.667 1 P
 ED14  13.217 1 S
 CAMP  10.487 1 S
 ED05  12.227 1 S
 ED25   8.847 1 S
# 2016 10 14 00 20 41.579 42.8652  13.0885   1.706  0.59 0 0 0     20
 ED11   3.631 1 P
 ED11   7.101 1 S
T1212   2.481 1 P
T1212   4.791 1 S
 ED02  10.181 1 S
T1217   7.291 1 S
 ED12   2.111 1 P
 ED12   3.581 1 S
T1215   6.951 1 S
T1216   1.221 1 P
 CESI   7.071 1 S
 FDMO   3.371 1 P
 FDMO   6.401 1 S
 CSP1   4.691 1 P
 CSP1   9.591 1 S
 ED19   1.551 1 P
 ED21   4.141 1 P
 ED21   7.931 1 S
 ED18   6.651 1 S
 ED18   3.461 1 P
 ED22   8.531 1 S
 ED17   3.731 1 P
 ED17   7.131 1 S
 MMO1   3.601 1 P
 MMO1   6.811 1 S
 ED16   6.581 1 S
T1245   2.161 1 S
 ED09   9.291 1 S
 ED20  10.091 1 S
T1214   5.591 1 S
 ED25  12.571 1 S
T1299  10.371 1 S
T1202   4.281 1 P
T1201   9.621 1 S
 ED10   3.921 1 S
 ED24   8.311 1 S
 NRCA   1.391 1 S
 NRCA   1.001 1 P
T1218   6.891 1 S
# 2016 10 14 00 21 36.647 42.8828  13.0740   2.098  0.58 0 0 0     21
 ED11   7.353 1 S
T1212   4.993 1 S
T1217   7.563 1 S
 ED12   2.213 1 P
 ED12   4.123 1 S
T1215   6.413 1 S
T1216   1.203 1 P
T1216   1.513 1 S
 CESI   6.963 1 S
 FDMO   6.323 1 S
 ED19   2.013 1 S
 ED22   8.703 1 S
 ED17   3.813 1 P
 ED17   7.153 1 S
 MMO1   7.003 1 S
T1245   3.563 1 S
 ED20  11.163 1 S
 TERO  16.513 1 S
 ED07  13.503 1 S
T1246  14.733 1 S
T1214   6.703 1 S
 ED25  12.923 1 S
T1202   8.073 1 S
 ED05  15.643 1 S
 ED10   4.313 1 S
 NRCA   1.203 1 P
 NRCA   2.383 1 S
 ED01  13.573 1 S
# 2016 10 14 00 22  4.324 42.8902  13.2388   2.799  0.56 0 0 0     22
T1202   7.666 1 S
 ED03  10.646 1 S
T1214   5.376 1 S
 ED10   5.046 1 S
 ED11   9.476 1 S
T1212   7.356 1 S
T1245   2.146 1 S
T1245   1.086 1 P
T1216   5.916 1 S
 ED19   1.526 1 P
 ED19   2.996 1 S
  MC2   2.076 1 S
  MC2   0.966 1 P
 FDMO   6.816 1 S
 CSP1   7.806 1 S
 ED18   4.026 1 S
 ED21   5.196 1 S
 GUMA   7.606 1 S
 ED22   5.246 1 S
 ED17   3.396 1 S
 ED17   1.726 1 P
 MMO1   1.316 1 P
 MMO1   2.656 1 S
 ED20   7.276 1 S
 ED16   3.106 1 S
 TERO  13.596 1 S
T1246  12.806 1 S
# 2016 10 14 00 22 50.372 42.8689  13.0726   3.757  0.43 0 0 0     23
T1212   5.048 1 S
T1216   1.958 1 S
 FDMO   3.488 1 P
 FDMO   6.118 1 S
 ED19   1.578 1 P
 ED19   3.248 1 S
 ED21   8.038 1 S
 ED18   7.058 1 S
 ED17   3.818 1 P
 ED17   7.128 1 S
 MMO1   3.688 1 P
 MMO1   6.878 1 S
 NRCA   0.758 1 P
 NRCA   2.138 1 S
# 2016 10 14 00 25 29.070 42.8355  13.1552   6.668  0.62 0 0 0     24
 ED10   1.650 1 P
 ED10   3.170 1 S
 ED11   3.310 1 P
 ED11   6.770 1 S
 ED02   5.220 1 P
T1212   4.780 1 S
T1212   2.510 1 P
 ED12   2.800 1 P
 ED12   5.260 1 S
T1215   7.810 1 S
 NRCA   1.390 1 P
 NRCA   1.670 1 S
T1216   4.370 1 S
 CESI   8.960 1 S
 FDMO   4.000 1 P
 ED19   2.200 1 P
 ED19   3.880 1 S
 CSP1   4.930 1 P
 CSP1   9.470 1 S
  MC2   4.250 1 S
 ED18   3.420 1 P
 ED18   6.500 1 S
 ED21   4.100 1 P
 ED21   7.750 1 S
 ED22   7.810 1 S
T1245   1.540 1 P
T1245   2.010 1 S
 ED17   6.380 1 S
 ED17   3.370 1 P
 MMO1   5.460 1 S
 ED16   4.890 1 S
 ED20   7.780 1 S
 TERO  13.340 1 S
 ED07  10.590 1 S
T1246  11.900 1 S
 ED25   5.110 1 P
 ED25  10.720 1 S
T1299   4.320 1 P
 ED05  13.500 1 S
T1214   4.070 1 S
T1214   2.090 1 P
T1201   3.940 1 P
T1202   5.860 1 S
T1202   2.960 1 P
 ED24   3.460 1 P
 ED03   4.440 1 P
# 2016 10 14 00 25 56.863 42.8693  13.0825   2.724  0.46 0 0 0     25
 ED11   6.867 1 S
T1212   4.717 1 S
T1212   2.487 1 P
T1217   7.337 1 S
 ED12   3.907 1 S
T1215   6.377 1 S
T1216   2.107 1 S
T1216   1.307 1 P
 CESI   7.097 1 S
 FDMO   3.377 1 P
 FDMO   6.627 1 S
 ED19   1.567 1 P
 ED19   2.307 1 S
 ED21   7.797 1 S
 ED18   6.337 1 S
 ED22   8.617 1 S
 ED17   7.147 1 S
 ED17   3.777 1 P
 MMO1   6.837 1 S
 MMO1   3.657 1 P
T1245   3.487 1 S
T1214   4.817 1 S
 ED10   4.107 1 S
 ED24   8.317 1 S
 NRCA   0.997 1 P
 ED03  10.737 1 S
T1218   7.507 1 S
# 2016 10 14 00 28 25.362 42.7474  13.1845   3.409  0.83 0 0 0     26
 ED01   4.388 1 P
 ED01   8.778 1 S
T1218   1.938 1 P
T1218   3.988 1 S
T1211  11.478 1 S
 ED02   4.498 1 P
 ED02   8.558 1 S
 ED11   2.528 1 P
T1217   7.228 1 S
T1212   2.038 1 P
T1212   4.248 1 S
T1215   4.568 1 P
T1215   8.578 1 S
 ED12   3.278 1 P
 ED12   5.968 1 S
 ED10   1.078 1 P
T1216   6.508 1 S
T1216   3.718 1 P
 CESI  11.429 1 S
 NRCA   2.019 1 P
 FDMO   5.718 1 P
 ED19   3.548 1 P
 ED19   6.808 1 S
  MC2   6.919 1 S
T1245   2.299 1 P
 CSP1  12.508 1 S
 ED18   4.718 1 P
 ED18   9.318 1 S
 ED21  10.448 1 S
 GUMA  12.899 1 S
 ED22  10.558 1 S
 ED17   4.418 1 P
 ED17   8.678 1 S
 MMO1   3.538 1 P
 MMO1   6.878 1 S
 ED16   2.648 1 P
 ED16   5.168 1 S
T1214   0.578 1 P
T1214   0.778 1 S
 ED09   3.408 1 P
 ED09   6.798 1 S
 ED20   3.408 1 P
 ED20   6.598 1 S
 TERO   5.948 1 P
 TERO  11.378 1 S
 ED07   4.468 1 P
 ED07   8.518 1 S
T1204   4.948 1 S
T1204   2.538 1 P
T1246   5.148 1 P
T1246   9.828 1 S
 ED15   6.998 1 P
 ED15  13.018 1 S
 SMA1   3.368 1 P
 ED25   4.008 1 P
 ED25   7.718 1 S
T1202   1.278 1 P
 CAMP   9.368 1 S
T1299   2.868 1 P
 ED14   6.608 1 P
 ED14  12.648 1 S
T1201   4.588 1 S
T1201   2.338 1 P
 ED05   5.678 1 P
 ED05  10.698 1 S
 ED24   1.768 1 P
 ED03   2.878 1 P
# 2016 10 14 00 29 29.647 42.8954  13.2405   4.107  0.37 0 0 0     27
T1214   5.573 1 S
 ED10   2.713 1 P
 ED10   5.153 1 S
T1245   1.213 1 P
T1212   7.673 1 S
 NRCA   4.623 1 S
 ED12   7.953 1 S
 ED19   1.613 1 P
  MC2   1.063 1 P
  MC2   2.013 1 S
 CESI   9.853 1 S
 FDMO   6.663 1 S
 ED18   4.093 1 S
 ED21   5.153 1 S
 ED22   5.073 1 S
 ED17   1.723 1 P
 ED17   3.363 1 S
 MMO1   2.663 1 S
 MMO1   1.333 1 P
 ED20   7.373 1 S
 ED16   3.363 1 S
# 2016 10 14 00 32 46.168 42.7391  13.1874   5.500  0.49 0 0 0     28
T1218   3.662 1 S
 ED02   4.462 1 P
 ED02   8.602 1 S
 ED11   2.512 1 P
 ED11   4.862 1 S
T1212   4.142 1 S
T1212   2.232 1 P
T1215   8.952 1 S
 ED12   3.432 1 P
 ED12   6.552 1 S
 ED10   1.242 1 P
 NRCA   4.182 1 S
 ED17   4.772 1 P
 ED17   9.092 1 S
T1214   0.952 1 P
 ED09   6.962 1 S
 ED20   6.652 1 S
 TERO  11.182 1 S
 ED07   8.562 1 S
T1246   9.602 1 S
T1202   2.422 1 S
T1202   1.212 1 P
T1201   4.362 1 S
T1201   2.312 1 P
 ED05  10.442 1 S
 ED24   1.722 1 P
 ED24   3.232 1 S
 ED03   5.312 1 S
