# 2016 10 14 04 17 28.639 42.8741  13.2460   5.394  1.35 0 0 0    200
 ED06  14.361 1 S
 RM33  13.261 1 S
T1202   6.861 1 S
 ED03  10.011 1 S
 ED03   5.361 1 P
 ED24   4.631 1 P
 ED24   8.281 1 S
T1214   4.651 1 S
T1214   2.501 1 P
 ED01  12.901 1 S
 ED01   6.931 1 P
T1218   8.261 1 S
T1218   4.331 1 P
 ED10   2.451 1 P
 ED10   4.561 1 S
 ED11   8.731 1 S
 ED02   6.631 1 P
 ED02  12.411 1 S
T1212   3.781 1 P
T1212   7.001 1 S
T1217   9.911 1 S
T1245   0.831 1 P
 NRCA   2.121 1 P
 ED12   4.061 1 P
 ED12   7.641 1 S
T1215   5.461 1 P
T1215  10.131 1 S
T1216   3.361 1 P
T1216   6.301 1 S
 CESI  10.331 1 S
 CESI   5.491 1 P
 ED19   1.871 1 P
 FEMA   6.791 1 S
  MC2   1.551 1 P
  MC2   1.791 1 S
 FDMO   7.601 1 S
 FDMO   3.981 1 P
 CSP1   8.451 1 S
 CSP1   4.471 1 P
 ED18   5.001 1 S
 ED18   2.581 1 P
 ED21   3.261 1 P
 ED21   6.081 1 S
 ED22   5.631 1 S
 ED17   2.221 1 P
 MMO1   1.441 1 P
 ED09   2.971 1 P
 ED09   5.861 1 S
 ED20   6.751 1 S
 ED20   3.581 1 P
 ED16   1.461 1 P
 TERO   6.731 1 P
 TERO  12.711 1 S
 ED15  14.221 1 S
T1246  11.931 1 S
T1246   6.391 1 P
 ED07   5.711 1 P
 ED07  10.711 1 S
 GIGS  16.221 1 S
 GIGS   9.021 1 P
 CAMP  12.271 1 S
 ED14  15.551 1 S
 ED25   5.851 1 P
 ED25  10.181 1 S
T1204   4.081 1 P
T1204   7.791 1 S
 ED05  14.161 1 S
T1201   4.531 1 P
# 2016 10 14 04 18 27.475 42.6451  13.3283   9.748  0.75 0 0 0    201
 ED04   4.155 1 S
 RM33   6.385 1 S
 ED03   4.865 1 S
T1299   1.785 1 P
 ED24   2.715 1 P
 ED24   4.895 1 S
T1218   5.735 1 S
 ED11   8.105 1 S
T1201   3.855 1 S
T1201   2.125 1 P
T1212   8.405 1 S
 ED10   7.235 1 S
 NRCA   8.825 1 S
 ED19   5.665 1 P
T1245   4.845 1 P
T1204   3.105 1 S
T1204   1.765 1 P
 ED18  12.455 1 S
 ED16   7.545 1 S
 ED22  12.975 1 S
 ED09   3.455 1 P
 ED20   2.825 1 P
 TERO   4.025 1 P
 TERO   7.245 1 S
 ED07   2.575 1 P
 ED07   4.685 1 S
T1246   5.425 1 S
 CAMP   5.155 1 S
 ED14   8.085 1 S
 ED25   1.865 1 P
 ED25   3.585 1 S
 SMA1   1.615 1 P
 SMA1   2.775 1 S
 ED05   6.865 1 S
# 2016 10 14 04 18 44.028 42.6480  13.3289  10.293  0.53 0 0 0    202
 ED03   4.942 1 S
T1299   3.362 1 S
T1299   1.882 1 P
 ED24   2.782 1 P
 ED24   4.902 1 S
T1218   6.202 1 S
 ED11   8.092 1 S
T1201   3.962 1 S
T1201   2.182 1 P
T1212   8.452 1 S
T1204   1.822 1 P
 MMO1   9.382 1 S
 ED20   5.242 1 S
 TERO   7.392 1 S
 TERO   4.112 1 P
 ED07   2.662 1 P
 ED07   4.852 1 S
T1246   5.642 1 S
 ED25   2.002 1 P
 ED25   3.742 1 S
 SMA1   2.942 1 S
 SMA1   1.722 1 P
# 2016 10 14 04 19 21.328 42.6412  13.3315   9.500  0.45 0 0 0    203
 RM33   6.352 1 S
 ED03   4.862 1 S
T1299   3.232 1 S
T1299   1.742 1 P
 ED24   2.652 1 P
 ED24   4.812 1 S
T1218   6.122 1 S
T1201   2.072 1 P
T1204   3.152 1 S
 ED16   7.492 1 S
 TERO   3.962 1 P
 TERO   7.212 1 S
 ED07   4.652 1 S
 ED07   2.492 1 P
T1246   5.492 1 S
 ED25   1.842 1 P
 ED25   3.512 1 S
 SMA1   1.562 1 P
 SMA1   2.662 1 S
# 2016 10 14 04 19 46.023 42.7643  13.1402   1.500  0.65 0 0 0    204
T1218   3.507 1 S
 ED02   8.117 1 S
 ED11   3.997 1 S
T1212   3.187 1 S
T1212   1.657 1 P
 ED12   2.777 1 P
 CESI  11.237 1 S
 NRCA   1.537 1 P
 NRCA   2.727 1 S
 ED10   0.317 1 S
 ED19   5.987 1 S
 ED21  10.647 1 S
T1245   4.057 1 S
 ED17   9.177 1 S
 ED20   7.747 1 S
T1214   0.997 1 P
T1201   3.017 1 P
 ED24   2.297 1 P
 ED24   4.937 1 S
# 2016 10 14 04 20 20.970 42.6455  13.3340   9.627  0.33 0 0 0    205
 ED03   4.820 1 S
T1299   3.350 1 S
T1299   1.760 1 P
 ED24   2.670 1 P
 ED24   4.840 1 S
 ED10   7.410 1 S
T1204   1.710 1 P
T1204   3.160 1 S
 ED20   5.260 1 S
 TERO   7.250 1 S
 TERO   3.980 1 P
 ED07   2.530 1 P
 ED07   4.670 1 S
T1246   5.470 1 S
 SMA1   1.590 1 P
 SMA1   2.960 1 S
 ED25   1.860 1 P
# 2016 10 14 04 21 11.391 42.6455  13.3340   9.500  0.50 0 0 0    206
 RM33   6.439 1 S
 ED03   2.599 1 P
 ED03   4.799 1 S
T1299   1.709 1 P
T1299   3.209 1 S
 ED24   2.599 1 P
 ED24   4.759 1 S
T1201   2.039 1 P
T1201   3.809 1 S
T1204   1.649 1 P
T1204   3.189 1 S
 ED16   7.589 1 S
 ED20   2.769 1 P
 ED20   5.089 1 S
 TERO   7.219 1 S
 TERO   3.949 1 P
 ED07   4.659 1 S
 ED07   2.509 1 P
T1246   5.419 1 S
T1246   2.979 1 P
 ED14   8.039 1 S
 ED25   1.829 1 P
 ED25   3.549 1 S
 SMA1   1.549 1 P
 SMA1   2.869 1 S
# 2016 10 14 04 21 42.926 42.6761  13.3306  11.500  0.50 0 0 0    207
T1299   2.264 1 P
T1299   3.764 1 S
 ED03   5.244 1 S
T1201   4.464 1 S
 ED24   5.304 1 S
T1218   6.594 1 S
 NRCA   8.314 1 S
T1245   7.994 1 S
  MC2   8.794 1 S
 ED16   6.724 1 S
 ED20   5.644 1 S
 TERO   7.764 1 S
 TERO   4.484 1 P
 ED07   3.034 1 P
 ED07   5.184 1 S
T1246   5.994 1 S
 ED25   2.374 1 P
 ED25   4.054 1 S
 SMA1   3.314 1 S
 SMA1   2.094 1 P
T1204   2.204 1 P
T1204   3.734 1 S
# 2016 10 14 04 21 48.280 42.8606  13.2678   5.432  0.66 0 0 0    208
T1214   2.540 1 P
T1214   4.880 1 S
 ED10   2.530 1 P
 ED10   4.650 1 S
T1212   4.240 1 P
T1212   7.240 1 S
T1217  10.280 1 S
 NRCA   2.330 1 P
T1245   1.420 1 P
T1245   2.640 1 S
T1216   6.770 1 S
 ED19   2.320 1 P
 ED19   3.700 1 S
  MC2   3.440 1 S
 FDMO   4.280 1 P
 FDMO   8.100 1 S
 CSP1   8.720 1 S
 ED18   2.820 1 P
 ED18   5.350 1 S
 ED21   6.230 1 S
 ED17   4.250 1 S
 ED17   2.240 1 P
 ED22   6.030 1 S
 MMO1   1.400 1 P
 ED09   5.120 1 S
 ED20   6.190 1 S
 ED16   1.180 1 P
# 2016 10 14 04 23 10.209 42.6506  13.3344   7.696  0.35 0 0 0    209
T1299   1.542 1 P
T1299   2.001 1 S
 ED24   2.421 1 P
 ED24   4.701 1 S
T1201   3.711 1 S
T1204   1.471 1 P
 ED20   4.841 1 S
 TERO   3.741 1 P
 ED07   4.381 1 S
T1246   5.211 1 S
 SMA1   1.341 1 P
 SMA1   2.651 1 S
 ED25   3.321 1 S
# 2016 10 14 04 24 23.807 42.6470  13.3368   9.681  0.49 0 0 0    210
 ED03   2.643 1 P
T1299   3.263 1 S
T1299   1.793 1 P
 ED24   2.623 1 P
 ED24   4.913 1 S
T1218   6.333 1 S
T1201   2.133 1 P
T1201   3.813 1 S
T1204   1.723 1 P
 ED20   2.833 1 P
 ED20   5.113 1 S
 TERO   7.313 1 S
 TERO   4.013 1 P
 ED07   2.583 1 P
 ED07   4.403 1 S
T1246   5.443 1 S
 CAMP   5.163 1 S
 ED25   1.903 1 P
 ED25   3.653 1 S
 SMA1   1.613 1 P
 SMA1   2.973 1 S
# 2016 10 14 04 24 51.807 42.6851  13.3259   9.195  0.35 0 0 0    211
T1299   2.023 1 P
T1299   3.503 1 S
 ED24   5.233 1 S
T1245   6.933 1 S
 MMO1   7.953 1 S
T1241   7.543 1 S
 TERO   7.593 1 S
 ED07   4.973 1 S
 ED07   2.793 1 P
 ED25   2.133 1 P
 SMA1   2.983 1 S
 SMA1   1.843 1 P
# 2016 10 14 04 25  5.172 42.6477  13.3242   9.500  0.71 0 0 0    212
 ED04   4.138 1 S
 RM33   6.298 1 S
T1299   1.688 1 P
 ED03   4.768 1 S
 ED02  10.298 1 S
 ED24   2.618 1 P
 ED24   4.788 1 S
T1218   6.078 1 S
T1201   3.828 1 S
T1201   2.018 1 P
 ED11   7.978 1 S
T1212   8.298 1 S
 ED16   7.428 1 S
T1204   1.688 1 P
T1204   3.088 1 S
 MMO1   9.198 1 S
T1241   4.968 1 P
 ED20   2.748 1 P
 TERO   7.198 1 S
 ED07   4.658 1 S
 ED07   2.498 1 P
T1246   5.448 1 S
 SMA1   1.558 1 P
 SMA1   2.618 1 S
 ED25   1.858 1 P
 ED25   3.518 1 S
 ED05   6.788 1 S
# 2016 10 14 04 25 40.635 42.9269  13.1838   5.794  0.45 0 0 0    213
 ED10   5.465 1 S
T1218  10.345 1 S
 NRCA   4.055 1 S
T1212   7.495 1 S
 ED19   1.155 1 P
 ED19   2.215 1 S
T1216   4.945 1 S
 FDMO   5.275 1 S
 ED21   2.515 1 P
 ED21   4.805 1 S
 ED18   1.805 1 P
 ED22   5.315 1 S
 ED17   2.065 1 P
 ED17   3.985 1 S
 MMO1   4.305 1 S
  MC2   1.045 1 P
  MC2   2.125 1 S
T1245   3.315 1 S
T1202   8.105 1 S
T1214   6.475 1 S
 ED24   9.375 1 S
# 2016 10 14 04 27  0.692 42.6555  13.3361  10.474  0.41 0 0 0    214
 RM33   6.538 1 S
T1299   1.968 1 P
T1299   3.438 1 S
 ED24   2.828 1 P
 ED24   5.148 1 S
T1201   2.308 1 P
T1201   4.158 1 S
 ED12  11.138 1 S
 ED10   7.318 1 S
T1216  11.178 1 S
 NRCA   9.029 1 S
T1214   2.898 1 P
T1204   1.938 1 P
 MMO1   8.928 1 S
 ED20   5.338 1 S
 TERO   7.458 1 S
 TERO   4.148 1 P
 ED07   2.708 1 P
T1246   5.578 1 S
 SMA1   3.108 1 S
 CAMP   5.238 1 S
 ED25   3.758 1 S
# 2016 10 14 04 28 13.904 42.8863  13.2270   3.479  0.44 0 0 0    215
 ED10   5.026 1 S
T1245   2.046 1 S
T1245   1.096 1 P
 ED19   1.626 1 P
 ED19   3.126 1 S
  MC2   1.566 1 S
 ED18   4.126 1 S
 ED21   5.536 1 S
 ED17   1.986 1 P
 ED17   3.696 1 S
 MMO1   3.066 1 S
 MMO1   1.576 1 P
# 2016 10 14 04 28 27.952 42.6406  13.3316   9.907  1.04 0 0 0    216
 ED04   2.348 1 P
 ED04   3.258 1 S
 ED06   7.488 1 S
 RM33   6.438 1 S
 RM33   3.498 1 P
 ED03   4.878 1 S
 ED03   2.738 1 P
T1211   6.878 1 P
 ED02  10.468 1 S
 ED02   5.678 1 P
T1299   3.458 1 S
T1299   1.878 1 P
 ED24   2.698 1 P
 ED24   4.918 1 S
T1218   6.218 1 S
T1218   3.418 1 P
 ED11   4.418 1 P
 ED11   8.058 1 S
T1217  10.628 1 S
T1217   5.758 1 P
T1201   2.168 1 P
T1201   3.918 1 S
T1212   8.468 1 S
T1212   4.658 1 P
 ED12  11.458 1 S
 ED10   7.218 1 S
 NRCA   8.859 1 S
T1214   6.208 1 S
 ED19  11.008 1 S
T1245   9.059 1 S
 FDMO  15.038 1 S
T1204   1.788 1 P
 CSP1   8.648 1 P
 CSP1  15.878 1 S
 ED18  12.508 1 S
 ED18   6.788 1 P
 ED21   7.268 1 P
 ED21  13.388 1 S
 ED16   7.598 1 S
 ED16   4.198 1 P
 ED17  11.198 1 S
 ED17   6.108 1 P
 ED22  12.908 1 S
 MMO1   5.128 1 P
 MMO1   9.228 1 S
 GUMA  15.399 1 S
 ED09   3.538 1 P
 ED09   6.498 1 S
 ED20   5.248 1 S
 ED20   2.718 1 P
 TERO   7.368 1 S
 TERO   4.058 1 P
 ED07   2.628 1 P
 ED07   4.818 1 S
T1246   5.268 1 S
T1246   3.078 1 P
 ED15   4.108 1 P
 ED15   7.608 1 S
 GIGS   9.078 1 S
 SMA1   1.668 1 P
 CAMP   5.168 1 S
 ED25   1.838 1 P
 ED14   7.638 1 S
 ED14   4.428 1 P
 ED05   3.768 1 P
 ED05   6.538 1 S
# 2016 10 14 04 29 13.554 42.6445  13.3330  10.718  0.81 0 0 0    217
 ED04   2.366 1 P
 ED04   4.236 1 S
 RM33   3.556 1 P
 RM33   6.536 1 S
 ED03   2.806 1 P
 ED03   5.016 1 S
T1299   1.946 1 P
T1299   3.406 1 S
 ED24   2.776 1 P
 ED24   5.046 1 S
T1218   3.516 1 P
T1218   6.456 1 S
 ED11   8.196 1 S
T1201   3.936 1 S
T1201   2.246 1 P
T1212   8.576 1 S
T1212   4.756 1 P
 ED10   6.796 1 S
 NRCA   8.946 1 S
T1214   6.326 1 S
 ED19  11.136 1 S
T1245   9.156 1 S
T1204   1.856 1 P
 ED18  12.626 1 S
 ED21  13.576 1 S
 ED16   7.716 1 S
 ED17  11.316 1 S
 MMO1   9.466 1 S
T1241   7.756 1 S
 ED09   6.536 1 S
 ED20   5.296 1 S
 ED20   3.006 1 P
 TERO   4.126 1 P
 TERO   7.406 1 S
 ED07   2.696 1 P
 ED07   4.836 1 S
T1246   3.146 1 P
T1246   5.576 1 S
 GIGS   9.156 1 S
 CAMP   5.266 1 S
 ED14   8.156 1 S
 ED25   2.026 1 P
 SMA1   1.786 1 P
 ED05   6.956 1 S
# 2016 10 14 04 32  2.857 42.7389  13.2534   4.884  0.56 0 0 0    218
 RM33   9.193 1 S
T1202   2.053 1 S
 ED03   2.823 1 P
 ED24   2.063 1 P
 ED24   4.513 1 S
T1218   4.543 1 S
T1218   2.323 1 P
 ED02   9.443 1 S
T1214   1.013 1 P
T1214   2.133 1 S
 ED18   5.033 1 P
 ED17   4.463 1 P
 ED20   4.983 1 S
 TERO  10.933 1 S
T1246   4.353 1 P
T1246   8.323 1 S
 GIGS  12.733 1 S
T1299   4.393 1 S
T1201   1.803 1 P
# 2016 10 14 04 32 52.847 42.6161  13.3274   7.500  0.51 0 0 0    219
 ED03   4.583 1 S
T1218   5.863 1 S
 ED24   4.553 1 S
 NRCA   9.664 1 S
 ED19  11.733 1 S
T1204   2.863 1 S
T1241   9.973 1 S
 SMA1   1.283 1 P
 SMA1   2.413 1 S
 ED07   2.223 1 P
 ED07   4.393 1 S
 TERO   6.943 1 S
 TERO   3.693 1 P
 ED25   1.573 1 P
# 2016 10 14 04 33 10.109 42.6450  13.3301   9.743  0.50 0 0 0    220
 RM33   6.411 1 S
 ED03   4.901 1 S
T1299   3.291 1 S
T1299   1.811 1 P
 ED24   4.911 1 S
T1218   6.181 1 S
 ED11   8.101 1 S
T1201   2.121 1 P
T1204   3.221 1 S
 ED16   7.551 1 S
 ED20   2.821 1 P
 TERO   7.281 1 S
 TERO   4.021 1 P
 ED07   2.561 1 P
 ED07   4.701 1 S
T1246   5.551 1 S
 ED25   1.901 1 P
 ED25   3.571 1 S
 SMA1   2.761 1 S
 SMA1   1.631 1 P
# 2016 10 14 04 34 13.263 42.6504  13.3299   9.785  0.51 0 0 0    221
 RM33   6.427 1 S
 ED03   4.907 1 S
T1299   3.307 1 S
T1299   1.807 1 P
 ED24   2.707 1 P
 ED24   4.867 1 S
T1218   6.177 1 S
T1201   3.857 1 S
T1212   8.417 1 S
T1204   3.307 1 S
 ED20   2.847 1 P
 ED20   5.197 1 S
 TERO   7.377 1 S
 TERO   4.027 1 P
 ED07   2.577 1 P
 ED07   4.797 1 S
T1246   5.597 1 S
T1246   3.047 1 P
 SMA1   2.737 1 S
 SMA1   1.647 1 P
 ED25   3.597 1 S
 ED05   6.877 1 S
# 2016 10 14 04 35 27.314 42.6883  13.1963   9.594  0.71 0 0 0    222
 ED01   6.886 1 S
T1211  10.756 1 S
 ED02   4.266 1 P
 ED02   7.916 1 S
T1218   3.386 1 S
T1218   2.036 1 P
 ED11   2.776 1 P
 ED11   5.086 1 S
T1217   7.546 1 S
T1215   5.136 1 P
T1215   9.476 1 S
T1212   2.896 1 P
T1212   5.276 1 S
 ED12   7.596 1 S
 ED10   4.406 1 S
 ED19   8.896 1 S
 ED18  11.326 1 S
T1214   2.176 1 P
T1214   4.126 1 S
 ED17  10.226 1 S
 MMO1   8.486 1 S
 ED09   7.256 1 S
 ED09   3.866 1 P
 ED20   3.586 1 P
 ED20   6.626 1 S
 ED07   7.586 1 S
 ED07   4.076 1 P
T1246   8.566 1 S
 SMA1   5.386 1 S
T1201   1.966 1 P
 ED25   6.236 1 S
T1299   2.296 1 P
 ED05   8.886 1 S
 ED24   1.746 1 P
 RM33   6.926 1 S
 ED03   2.306 1 P
 ED03   4.276 1 S
# 2016 10 14 04 36 25.225 42.6492  13.3344  10.162  0.65 0 0 0    223
 SMA1   1.715 1 P
 SMA1   3.025 1 S
T1299   1.895 1 P
T1299   3.345 1 S
 ED03   2.765 1 P
 ED24   2.715 1 P
 ED24   4.985 1 S
T1201   3.925 1 S
T1201   2.205 1 P
T1218   6.345 1 S
T1218   3.465 1 P
 ED11   8.145 1 S
T1204   1.785 1 P
 NRCA   8.976 1 S
 ED16   7.615 1 S
 MMO1   4.125 1 P
 ED20   3.065 1 P
 ED20   5.145 1 S
 TERO   7.355 1 S
 TERO   4.085 1 P
 ED07   2.725 1 P
 ED07   4.465 1 S
T1246   5.515 1 S
 ED14   8.185 1 S
 ED25   3.635 1 S
 ED05   3.625 1 P
 ED05   6.765 1 S
# 2016 10 14 04 40 18.920 42.8731  13.0834   2.500  0.50 0 0 0    224
 ED11   7.320 1 S
T1212   4.810 1 S
T1216   2.170 1 S
T1216   1.060 1 P
 CESI   7.020 1 S
 FDMO   3.330 1 P
 FDMO   6.210 1 S
 ED19   1.480 1 P
 ED19   2.440 1 S
 ED17   3.620 1 P
 ED17   7.180 1 S
 MMO1   3.480 1 P
 MMO1   6.770 1 S
T1245   3.300 1 S
T1246  14.620 1 S
 NRCA   0.890 1 P
 NRCA   1.830 1 S
 ED01  12.860 1 S
# 2016 10 14 04 40 47.800 42.8573  13.1429   0.160  0.60 0 0 0    225
 ED10   1.570 1 P
T1218   7.690 1 S
 ED11   7.330 1 S
T1212   5.140 1 S
T1212   2.760 1 P
 NRCA   1.170 1 S
 NRCA   0.920 1 P
T1217   8.230 1 S
T1215   8.130 1 S
 SEF1   6.170 1 P
 FDMO   7.440 1 S
 ED19   1.800 1 P
 ED19   2.070 1 S
 CSP1   9.490 1 S
 ED21   3.990 1 P
 ED21   7.640 1 S
  MC2   1.740 1 P
 ED22   7.960 1 S
 ED17   6.190 1 S
 ED17   3.260 1 P
 MMO1   5.280 1 S
T1245   0.800 1 P
 TERO   7.500 1 P
T1246  14.210 1 S
T1214   4.380 1 S
# 2016 10 14 04 43 16.179 42.6461  13.3259   9.440  0.58 0 0 0    226
 ED04   4.211 1 S
 RM33   6.341 1 S
 ED03   4.291 1 S
T1299   1.781 1 P
 ED24   2.701 1 P
 ED24   4.851 1 S
T1218   6.071 1 S
 ED11   7.981 1 S
T1201   3.821 1 S
T1201   2.091 1 P
T1212   8.391 1 S
 ED10   7.011 1 S
T1204   2.811 1 S
T1204   1.751 1 P
 ED16   7.531 1 S
 ED20   2.801 1 P
 TERO   4.021 1 P
 TERO   7.251 1 S
 ED07   2.551 1 P
 ED07   4.721 1 S
T1246   5.511 1 S
T1246   3.031 1 P
 SMA1   2.571 1 S
 SMA1   1.611 1 P
 CAMP   5.151 1 S
 ED25   1.901 1 P
 ED25   3.571 1 S
 ED05   6.821 1 S
# 2016 10 14 04 44 10.796 42.6493  13.3420   9.276  0.19 0 0 0    227
T1299   1.694 1 P
T1299   3.184 1 S
 ED24   2.594 1 P
 ED24   4.744 1 S
T1201   3.764 1 S
T1204   1.654 1 P
 ED20   5.024 1 S
 TERO   7.224 1 S
 TERO   3.934 1 P
 ED07   4.364 1 S
 ED07   2.484 1 P
T1246   5.424 1 S
 SMA1   1.524 1 P
 SMA1   2.864 1 S
 ED25   1.814 1 P
 ED25   3.624 1 S
 ED05   6.424 1 S
# 2016 10 14 04 44 55.494 42.8830  13.1365   4.500  0.49 0 0 0    228
 ED10   2.366 1 P
 ED10   3.796 1 S
T1218   8.106 1 S
 ED02  11.276 1 S
T1212   3.186 1 P
T1212   5.916 1 S
 NRCA   1.406 1 P
 NRCA   2.076 1 S
T1216   1.926 1 P
T1216   3.396 1 S
 CESI   7.766 1 S
 FDMO   5.776 1 S
 ED19   1.076 1 P
 CSP1   7.866 1 S
 ED18   2.636 1 P
 ED21   3.416 1 P
 ED21   6.496 1 S
  MC2   1.336 1 P
  MC2   2.656 1 S
 ED17   2.946 1 P
 ED17   5.636 1 S
 MMO1   2.856 1 P
 MMO1   5.476 1 S
T1245   2.026 1 S
T1245   1.386 1 P
# 2016 10 14 04 45 18.496 42.7369  13.1896   3.701  0.80 0 0 0    229
T1218   1.864 1 P
T1211  11.944 1 S
 ED02   4.444 1 P
 ED11   2.494 1 P
 ED11   4.864 1 S
T1212   2.184 1 P
T1212   4.234 1 S
T1215   4.634 1 P
T1215   8.744 1 S
 ED12   3.344 1 P
 ED12   6.504 1 S
 ED10   1.254 1 P
 NRCA   2.154 1 P
 NRCA   4.094 1 S
 CSP1  12.594 1 S
 ED18   9.474 1 S
 ED21  10.734 1 S
 GUMA  13.194 1 S
 ED22  10.994 1 S
 ED17   8.884 1 S
 ED17   4.664 1 P
 MMO1   7.084 1 S
 MMO1   3.674 1 P
T1214   0.914 1 P
 ED09   3.524 1 P
 ED09   6.774 1 S
 ED20   3.414 1 P
 ED20   6.684 1 S
 TERO  11.184 1 S
 TERO   5.934 1 P
 ED07   8.724 1 S
T1246   5.154 1 P
T1246   9.644 1 S
T1202   2.434 1 S
T1201   2.284 1 P
 ED05  10.474 1 S
 RM33   8.624 1 S
 ED24   2.654 1 S
 ED03   5.354 1 S
 ED03   2.794 1 P
# 2016 10 14 04 45 42.193 42.7590  13.1647   9.437  0.82 0 0 0    230
T1218   2.397 1 P
T1218   4.467 1 S
 ED02   4.597 1 P
 ED02   8.427 1 S
 ED11   2.757 1 P
 ED11   5.077 1 S
T1217   6.887 1 S
T1212   4.137 1 S
T1212   2.357 1 P
T1215   8.127 1 S
 ED12   3.437 1 P
 ED12   5.967 1 S
 ED10   1.557 1 P
 ED10   2.477 1 S
 NRCA   2.257 1 P
 FDMO   5.117 1 P
 ED19   3.307 1 P
 CSP1  10.887 1 S
  MC2   3.467 1 P
  MC2   6.257 1 S
 ED18   5.167 1 P
 ED21   5.497 1 P
 ED21   9.677 1 S
 ED22  10.417 1 S
 ED17   8.747 1 S
 ED17   4.567 1 P
 MMO1   3.817 1 P
 MMO1   7.217 1 S
 ED16   5.697 1 S
T1214   1.667 1 P
T1214   3.127 1 S
 ED20   7.137 1 S
 TERO  11.947 1 S
T1246  10.457 1 S
T1202   3.997 1 S
T1201   2.927 1 P
T1201   5.457 1 S
 ED24   2.497 1 P
 ED24   4.697 1 S
 ED03   6.577 1 S
# 2016 10 14 04 46 35.658 42.6489  13.3386   8.909  0.44 0 0 0    231
 ED25   1.782 1 P
 ED25   3.482 1 S
 SMA1   1.512 1 P
 SMA1   2.802 1 S
 ED03   4.812 1 S
T1299   3.162 1 S
T1299   1.692 1 P
 ED24   4.832 1 S
 ED11   7.992 1 S
T1204   3.102 1 S
T1245   5.142 1 P
 ED20   2.712 1 P
 TERO   3.902 1 P
 TERO   7.152 1 S
T1246   5.382 1 S
 ED05   6.702 1 S
# 2016 10 14 04 50  1.898 42.7214  13.1492   0.500  1.18 0 0 0    232
 ED01   3.982 1 P
 ED01   7.982 1 S
 ED08   5.372 1 P
T1218   1.492 1 S
T1218   1.172 1 P
T1211  11.222 1 S
 ED02   7.732 1 S
 ED02   4.122 1 P
 ED11   2.122 1 P
T1217   3.632 1 P
T1212   1.782 1 P
T1215   4.612 1 P
 ED12   3.312 1 P
 SEF1   8.482 1 P
 NRCA   2.382 1 P
 FDMO   6.102 1 P
 ED10   0.992 1 P
 CSP1  14.032 1 S
 CSP1   7.282 1 P
T1245   2.852 1 P
 ED21   6.202 1 P
 ED17  10.302 1 S
 ED17   5.222 1 P
 MMO1   4.472 1 P
 MMO1   8.382 1 S
 ED16   6.422 1 S
T1214   0.772 1 P
 ED09   8.132 1 S
 ED20   7.742 1 S
 ED20   4.072 1 P
 TERO  12.592 1 S
 TERO   6.452 1 P
T1202   1.392 1 P
T1204   2.922 1 P
 ED07   9.822 1 S
 ED07   4.862 1 P
T1246  10.582 1 S
T1246   5.522 1 P
 ED15   6.662 1 P
 SMA1   3.662 1 P
 SMA1   7.562 1 S
 ED25   3.922 1 P
T1201   2.252 1 P
T1299   2.792 1 P
 CAMP   5.162 1 P
 ED14   6.692 1 P
 ED05   5.622 1 P
 ED24   1.172 1 P
 ED03   2.512 1 P
 RM33   4.372 1 P
 RM33   7.832 1 S
# 2016 10 14 04 50 52.106 42.5707  13.2924   6.123  0.79 0 0 0    233
 ED01   3.164 1 P
 ED01   5.674 1 S
 ED02   9.434 1 S
 ED03   1.764 1 P
T1218   5.874 1 S
T1212   4.774 1 P
 ED12   6.314 1 P
 ED24   2.404 1 P
 ED24   4.614 1 S
 ED10   8.884 1 S
 NRCA   5.374 1 P
 NRCA  10.714 1 S
T1201   2.174 1 P
T1201   4.224 1 S
T1299   1.614 1 P
 ED17  13.814 1 S
 ED16   9.844 1 S
T1204   4.554 1 S
T1241  10.454 1 S
 SMA1   3.304 1 S
 SMA1   1.804 1 P
 ED07   2.904 1 P
 ED07   5.494 1 S
 ED25   1.474 1 P
 ED25   1.824 1 S
 TERO   4.494 1 P
 TERO   8.464 1 S
T1246   5.744 1 S
T1246   3.054 1 P
 ED15   4.094 1 P
 ED15   7.194 1 S
 CAMP   3.954 1 S
 CAMP   2.324 1 P
 GIGS   8.264 1 S
 ED04   0.794 1 P
 ED14   3.424 1 P
 ED14   6.354 1 S
 ED05   2.314 1 P
 ED05   4.394 1 S
# 2016 10 14 04 51 25.228 42.6367  13.3266  11.521  0.42 0 0 0    234
 RM33   5.582 1 S
T1299   3.712 1 S
 ED03   3.022 1 P
 ED24   3.012 1 P
 ED24   5.322 1 S
T1201   4.252 1 S
T1214   2.702 1 P
T1204   2.102 1 P
 ED20   5.542 1 S
 TERO   4.352 1 P
 ED07   5.012 1 S
 ED07   2.902 1 P
T1246   5.812 1 S
 SMA1   1.972 1 P
 SMA1   3.292 1 S
 ED25   3.942 1 S
