# 2016 10 14 01 15 38.890 42.9003  13.2553   2.859  0.99 0 0 0     66
 RM33  14.290 1 S
T1202   4.090 1 P
T1202   7.960 1 S
 ED03   5.850 1 P
 ED03  11.100 1 S
 ED24   4.870 1 P
 ED24   9.360 1 S
T1214   2.970 1 P
T1214   5.760 1 S
 ED01  13.680 1 S
 ED08  16.960 1 S
T1218   4.950 1 P
T1218   9.320 1 S
 ED10   2.880 1 P
 ED10   5.640 1 S
 ED11   5.300 1 P
 ED11   9.710 1 S
 ED02  13.230 1 S
T1212   8.010 1 S
T1212   4.200 1 P
T1217  10.970 1 S
T1245   1.321 1 P
 NRCA   2.421 1 P
 ED12   4.360 1 P
 ED12   8.580 1 S
T1215  10.920 1 S
T1215   5.710 1 P
T1216   6.580 1 S
T1216   3.410 1 P
 ED19   1.790 1 P
  MC2   1.201 1 P
 CESI  10.181 1 S
 FDMO   6.630 1 S
 FDMO   3.440 1 P
 CSP1   7.310 1 S
 CSP1   3.750 1 P
 ED18   1.810 1 P
 ED21   2.490 1 P
 ED21   4.820 1 S
 GUMA   3.731 1 P
 GUMA   7.221 1 S
 ED22   4.660 1 S
 ED17   1.340 1 P
 MMO1   0.911 1 P
 ED09   3.020 1 P
 ED09   5.910 1 S
 TERO  13.390 1 S
 TERO   6.960 1 P
 ED20   7.190 1 S
 ED20   3.730 1 P
 ED15  16.070 1 S
T1246  13.100 1 S
 ED07   5.940 1 P
 GIGS  17.450 1 S
 ED16   1.560 1 P
 CAMP  13.420 1 S
 ED05  15.400 1 S
T1204   4.540 1 P
T1299   5.221 1 P
# 2016 10 14 01 16 39.768 42.8638  13.0827   3.500  0.57 0 0 0     67
 ED11   6.882 1 S
T1212   4.752 1 S
T1212   2.502 1 P
 ED02  10.202 1 S
T1217   7.322 1 S
 ED12   2.032 1 P
 ED12   3.552 1 S
T1215   6.262 1 S
T1216   1.072 1 P
 CESI   6.832 1 S
 FDMO   3.432 1 P
 ED19   1.512 1 P
 ED21   4.232 1 P
 ED21   7.762 1 S
 ED18   3.492 1 P
 ED22   8.612 1 S
  MC2   4.482 1 S
 ED17   7.182 1 S
 ED17   3.762 1 P
 MMO1   3.642 1 P
 MMO1   6.912 1 S
T1245   2.512 1 S
 ED16   6.562 1 S
 ED09   9.462 1 S
 ED20  10.162 1 S
 NRCA   1.062 1 P
 NRCA   1.762 1 S
# 2016 10 14 01 17 58.050 42.8517  13.2524   3.500  0.35 0 0 0     68
 NRCA   2.030 1 P
T1245   2.170 1 S
 ED19   2.140 1 P
 ED19   4.090 1 S
 ED18   5.500 1 S
 ED22   6.610 1 S
 ED17   4.510 1 S
 MMO1   2.920 1 S
 MMO1   1.480 1 P
 ED16   2.050 1 S
 ED16   1.070 1 P
 ED20   6.210 1 S
# 2016 10 14 01 19 17.762 42.8922  13.1850   5.220  0.91 0 0 0     69
 ED10   2.198 1 P
T1218   8.458 1 S
 ED11   8.958 1 S
 NRCA   1.459 1 P
T1212   6.528 1 S
T1212   3.538 1 P
T1217   9.558 1 S
 ED12   6.188 1 S
T1215   9.128 1 S
T1215   4.858 1 P
T1216   2.628 1 P
 CESI   8.869 1 S
 ED19   1.138 1 P
 ED19   2.188 1 S
 ED21   3.188 1 P
 ED21   6.108 1 S
 ED18   2.398 1 P
 ED18   4.708 1 S
 ED22   6.598 1 S
  MC2   0.849 1 P
 ED17   4.898 1 S
 ED17   2.458 1 P
 MMO1   2.108 1 P
 MMO1   4.128 1 S
 ED09   3.908 1 P
 ED09   7.178 1 S
 ED16   3.868 1 S
 ED16   2.038 1 P
 ED20   8.288 1 S
 ED20   4.358 1 P
 TERO   7.528 1 P
 TERO  14.078 1 S
T1246   7.038 1 P
T1246  13.158 1 S
 SMA1  10.188 1 S
 ED14  16.508 1 S
 ED14   8.758 1 P
 ED05  14.898 1 S
T1201   5.118 1 P
T1214   2.518 1 P
T1214   4.908 1 S
T1202   3.818 1 P
T1202   7.478 1 S
 RM33  13.418 1 S
 ED24   4.568 1 P
 ED24   8.928 1 S
 ED03  10.568 1 S
 ED03   5.538 1 P
# 2016 10 14 01 19 53.076 42.6534  13.1960  10.255  0.31 0 0 0     70
 RM33   6.024 1 S
 ED03   1.934 1 P
 ED03   3.584 1 S
 ED24   1.624 1 P
T1218   3.764 1 S
 ED11   5.464 1 S
T1212   5.984 1 S
T1214   4.904 1 S
T1202   3.854 1 S
T1202   2.044 1 P
 ED07   3.814 1 P
T1201   3.524 1 S
 SMA1   4.684 1 S
 SMA1   2.664 1 P
 ED25   5.504 1 S
# 2016 10 14 01 20 15.254 42.7370  13.1887   4.002  0.62 0 0 0     71
 ED01   8.306 1 S
T1218   3.716 1 S
 ED02   4.376 1 P
 ED02   8.316 1 S
 ED11   2.426 1 P
T1217   7.366 1 S
T1212   2.156 1 P
T1212   4.246 1 S
T1215   8.826 1 S
 ED12   3.326 1 P
 ED12   6.536 1 S
 ED10   1.176 1 P
 NRCA   4.076 1 S
 ED22  10.916 1 S
 ED17   9.006 1 S
 ED17   4.706 1 P
 MMO1   7.226 1 S
 ED16   5.336 1 S
T1214   0.896 1 P
 ED09   3.426 1 P
 ED09   6.976 1 S
 ED20   3.356 1 P
 TERO   5.866 1 P
 TERO  11.106 1 S
 ED07   8.426 1 S
T1204   2.406 1 P
T1246   9.526 1 S
 ED25   7.456 1 S
T1202   1.126 1 P
T1202   1.416 1 S
T1299   2.876 1 P
T1201   4.266 1 S
T1201   2.226 1 P
 ED24   3.246 1 S
 ED24   1.646 1 P
# 2016 10 14 01 20 41.469 42.8122  13.1988   7.500  0.80 0 0 0     72
 ED03   4.201 1 P
 ED03   7.901 1 S
 ED01  10.711 1 S
T1218   5.921 1 S
 ED10   1.591 1 P
 ED10   2.941 1 S
T1217   8.531 1 S
T1212   4.291 1 S
T1215   8.741 1 S
T1215   4.851 1 P
 ED12   3.521 1 P
 ED12   6.211 1 S
 NRCA   1.671 1 P
T1216   5.081 1 S
T1216   3.211 1 P
 CESI  10.331 1 S
 FDMO   8.611 1 S
 FDMO   4.731 1 P
 ED19   2.541 1 P
 ED19   4.701 1 S
T1245   1.501 1 P
  MC2   4.901 1 S
 CSP1  10.211 1 S
 ED18   6.941 1 S
 ED21   8.111 1 S
 ED22   8.491 1 S
 ED17   6.451 1 S
 MMO1   2.761 1 P
 MMO1   5.021 1 S
 ED16   2.031 1 P
 ED16   3.891 1 S
 ED09   3.211 1 P
 ED09   6.101 1 S
 ED20   3.521 1 P
 ED20   6.571 1 S
 TERO  12.101 1 S
 TERO   6.481 1 P
 ED07   5.061 1 P
 ED07   9.581 1 S
T1246  10.891 1 S
T1246   5.861 1 P
T1204   3.421 1 P
 SMA1   4.091 1 P
 CAMP  11.001 1 S
 ED14  14.051 1 S
T1299   7.501 1 S
 ED05  12.261 1 S
T1214   3.221 1 S
T1214   1.651 1 P
T1202   2.581 1 P
 RM33  11.021 1 S
 ED24   3.261 1 P
 ED24   6.381 1 S
# 2016 10 14 01 21  2.562 42.7356  13.1856   5.238  0.56 0 0 0     73
 ED03   5.258 1 S
 ED24   1.728 1 P
 ED24   3.288 1 S
T1218   3.608 1 S
 ED02   8.428 1 S
 ED02   4.418 1 P
 ED11   2.468 1 P
T1212   4.218 1 S
T1212   2.188 1 P
T1215   8.848 1 S
 ED12   3.368 1 P
 ED12   6.678 1 S
 ED10   2.308 1 S
 NRCA   4.118 1 S
T1214   0.928 1 P
 ED22  10.958 1 S
 ED17   9.048 1 S
 MMO1   7.298 1 S
 ED09   6.768 1 S
 TERO  11.138 1 S
 ED07   8.518 1 S
T1204   2.458 1 P
T1246   9.578 1 S
T1202   2.418 1 S
T1202   1.188 1 P
T1201   4.298 1 S
# 2016 10 14 01 22 32.843 42.8643  13.2450   6.756  0.60 0 0 0     74
 ED03   5.077 1 P
T1214   4.307 1 S
 ED10   2.417 1 P
 ED10   4.357 1 S
 ED11   9.087 1 S
T1212   6.747 1 S
T1217   9.937 1 S
 NRCA   2.088 1 P
T1245   1.318 1 P
T1245   2.588 1 S
T1216   6.307 1 S
 ED19   2.177 1 P
 ED19   4.107 1 S
 FDMO   7.917 1 S
  MC2   3.488 1 S
 CSP1   8.767 1 S
 ED18   5.387 1 S
 ED17   4.557 1 S
 ED17   2.457 1 P
 MMO1   1.767 1 P
 MMO1   3.277 1 S
 ED09   5.667 1 S
 ED20   3.487 1 P
 ED20   6.477 1 S
 TERO  12.477 1 S
 ED15  14.097 1 S
 ED07  10.487 1 S
T1246  11.017 1 S
 SMA1   8.727 1 S
T1299   8.807 1 S
# 2016 10 14 01 22 38.651 42.6019  13.3064   9.080  0.50 0 0 0     75
 ED04   2.649 1 S
 RM33   5.209 1 S
 ED03   2.359 1 P
 ED11   4.249 1 P
T1218   5.399 1 S
T1218   3.599 1 P
 ED24   5.089 1 S
T1201   4.429 1 S
T1299   1.700 1 P
T1202   2.879 1 P
T1202   4.069 1 S
 ED09   8.359 1 S
 SMA1   1.679 1 P
 ED07   2.599 1 P
 TERO   4.219 1 P
T1246   2.869 1 P
 ED25   1.449 1 P
 ED05   5.149 1 S
 ED05   2.809 1 P
# 2016 10 14 01 24  3.595 42.8745  13.0721   3.500  0.42 0 0 0     76
T1212   5.075 1 S
 ED11   7.255 1 S
 ED12   2.125 1 P
 ED12   4.025 1 S
T1216   1.005 1 P
 CESI   6.515 1 S
 FDMO   6.085 1 S
 FDMO   3.365 1 P
 ED21   7.895 1 S
 ED19   2.835 1 S
 ED22   8.505 1 S
 ED17   7.055 1 S
 MMO1   6.965 1 S
 NRCA   1.975 1 S
 NRCA   1.185 1 P
# 2016 10 14 01 24 30.995 42.5865  13.2731   7.404  0.31 0 0 0     77
 RM33   4.205 1 S
 ED03   1.595 1 P
 ED03   3.155 1 S
 ED24   2.565 1 P
 ED24   3.825 1 S
T1201   3.515 1 S
T1299   1.365 1 P
T1299   2.635 1 S
 SMA1   3.365 1 S
 ED07   5.475 1 S
 ED25   1.725 1 P
 ED25   3.505 1 S
T1246   5.915 1 S
# 2016 10 14 01 25  0.199 42.7571  13.2081   8.673  0.29 0 0 0     78
 ED24   2.611 1 P
T1218   5.351 1 S
T1212   4.811 1 S
T1214   1.521 1 P
T1214   2.441 1 S
 ED12   6.471 1 S
 ED12   3.791 1 P
 ED10   2.961 1 S
 ED10   1.651 1 P
 NRCA   4.491 1 S
 NRCA   2.311 1 P
 ED19   6.641 1 S
 ED17   8.241 1 S
 MMO1   6.651 1 S
 ED16   5.171 1 S
 ED20   6.231 1 S
 ED20   3.271 1 P
 ED07   8.141 1 S
T1246   9.321 1 S
T1204   4.951 1 S
T1202   3.651 1 S
T1202   1.861 1 P
# 2016 10 14 01 25 21.529 42.7642  13.2415  10.500  0.45 0 0 0     79
 ED03   3.431 1 P
 ED03   6.621 1 S
T1202   2.301 1 P
 ED24   5.201 1 S
 ED10   3.741 1 S
 MMO1   6.091 1 S
 MMO1   3.141 1 P
 ED16   4.701 1 S
 ED20   5.771 1 S
 ED20   3.051 1 P
T1204   2.651 1 P
 SMA1   6.121 1 S
T1299   5.861 1 S
# 2016 10 14 01 25 51.359 42.7347  13.1888   5.389  0.30 0 0 0     80
 ED24   1.741 1 P
 ED24   3.331 1 S
T1218   1.941 1 P
T1218   3.681 1 S
 ED11   2.601 1 P
T1212   4.301 1 S
T1212   2.331 1 P
 ED12   3.531 1 P
 ED10   1.411 1 P
 ED10   2.451 1 S
 NRCA   4.251 1 S
T1214   0.961 1 P
 ED17   9.171 1 S
 TERO  11.171 1 S
 ED07   8.681 1 S
T1246   9.581 1 S
T1202   2.351 1 S
T1202   1.211 1 P
# 2016 10 14 01 26 26.924 42.8481  13.0858   8.369  0.19 0 0 0     81
T1212   4.216 1 S
 ED12   4.206 1 S
T1216   3.626 1 S
 ED19   2.146 1 P
 ED19   4.046 1 S
 ED17   3.886 1 P
 ED17   7.386 1 S
 MMO1   7.027 1 S
T1245   3.797 1 S
 NRCA   1.297 1 P
 NRCA   2.777 1 S
 ED10   1.836 1 P
 ED24   8.106 1 S
# 2016 10 14 01 27  4.075 42.7762  13.2109   4.958  0.52 0 0 0     82
T1202   1.755 1 P
T1202   3.125 1 S
 ED03   3.685 1 P
 ED03   6.115 1 S
 ED24   2.515 1 P
 ED24   4.225 1 S
T1218   2.715 1 P
T1218   4.415 1 S
T1214   0.865 1 P
T1214   1.635 1 S
 ED02   5.325 1 P
 ED02   9.415 1 S
 ED11   3.365 1 P
T1212   5.085 1 S
T1212   3.095 1 P
 ED10   2.305 1 S
 ED10   1.235 1 P
 NRCA   3.245 1 S
 NRCA   1.715 1 P
T1245   3.605 1 S
 ED22   9.465 1 S
 ED16   4.065 1 S
 ED20   5.935 1 S
 TERO   5.895 1 P
 TERO  11.185 1 S
T1246  10.205 1 S
 ED25   8.335 1 S
 ED05  11.255 1 S
T1299   3.285 1 P
T1201   5.195 1 S
T1201   2.805 1 P
# 2016 10 14 01 29 25.392 42.8491  13.1582   6.418  0.92 0 0 0     83
 ED01  11.268 1 S
T1218   6.498 1 S
 ED10   1.638 1 P
 ED11   3.578 1 P
 ED11   7.128 1 S
 ED02  10.178 1 S
 ED02   5.538 1 P
T1212   4.918 1 S
T1212   2.688 1 P
T1217   7.998 1 S
 NRCA   1.138 1 P
 ED12   2.888 1 P
T1215   7.848 1 S
T1215   4.238 1 P
T1216   4.608 1 S
T1216   2.398 1 P
 CESI   4.808 1 P
 CESI   8.948 1 S
 FDMO   4.068 1 P
 ED19   1.908 1 P
 ED19   2.978 1 S
 CSP1   9.238 1 S
 CSP1   4.958 1 P
  MC2   1.888 1 P
  MC2   2.818 1 S
 ED18   3.288 1 P
 ED18   6.318 1 S
 ED21   4.028 1 P
 ED21   7.558 1 S
 ED22   7.638 1 S
 ED17   5.478 1 S
 ED17   3.268 1 P
 MMO1   5.298 1 S
 MMO1   2.688 1 P
T1245   1.048 1 P
 ED16   4.668 1 S
 ED16   2.428 1 P
 ED09   7.358 1 S
 ED09   3.838 1 P
 ED20   7.948 1 S
 ED20   4.228 1 P
 TERO   7.148 1 P
 TERO  13.588 1 S
T1246  12.328 1 S
 ED05  13.868 1 S
T1299   8.968 1 S
T1214   2.118 1 P
T1201   8.158 1 S
T1201   4.358 1 P
T1202   5.988 1 S
T1202   3.308 1 P
 RM33  12.218 1 S
 ED24   3.898 1 P
 ED24   7.088 1 S
# 2016 10 14 01 30 54.817 42.7565  13.1513   4.020  0.68 0 0 0     84
 ED02   8.133 1 S
 ED11   2.483 1 P
T1212   1.663 1 P
T1215   4.323 1 P
 ED12   2.783 1 P
 CESI  11.443 1 S
 NRCA   1.413 1 P
 FDMO   9.913 1 S
 ED19   3.083 1 P
 ED19   5.843 1 S
  MC2   6.553 1 S
T1245   2.153 1 P
 ED18   9.053 1 S
 ED21  10.103 1 S
 ED22  10.753 1 S
 ED17   8.603 1 S
 MMO1   7.353 1 S
 MMO1   3.753 1 P
T1214   1.033 1 P
T1202   1.973 1 P
 ED24   2.493 1 P
 ED24   3.333 1 S
# 2016 10 14 01 31 40.797 42.8538  13.2528   4.500  0.93 0 0 0     85
 RM33  12.743 1 S
T1202   3.213 1 P
T1202   6.383 1 S
 ED03   5.003 1 P
 ED03   9.533 1 S
 ED24   4.003 1 P
T1214   2.083 1 P
 ED01  12.503 1 S
 ED01   6.753 1 P
T1218   7.993 1 S
T1218   4.113 1 P
 ED10   4.493 1 S
 ED10   2.243 1 P
 ED11   8.823 1 S
 ED11   4.483 1 P
 ED02  12.053 1 S
 ED02   6.433 1 P
T1212   3.613 1 P
T1212   6.903 1 S
T1217   9.933 1 S
 NRCA   2.044 1 P
 NRCA   4.054 1 S
 ED12   7.513 1 S
 ED12   4.013 1 P
T1215   5.413 1 P
T1215  10.213 1 S
T1245   1.024 1 P
T1216   3.413 1 P
 CESI  10.694 1 S
 ED19   4.203 1 S
 ED19   2.153 1 P
  MC2   1.714 1 P
 FDMO   8.073 1 S
 FDMO   4.173 1 P
 CSP1   8.883 1 S
 CSP1   4.773 1 P
 ED18   5.453 1 S
 ED18   2.783 1 P
 ED21   6.483 1 S
 ED21   3.413 1 P
 GUMA   8.684 1 S
 ED22   6.133 1 S
 ED17   2.293 1 P
 ED17   3.943 1 S
 MMO1   2.844 1 S
 ED09   2.603 1 P
 ED16   1.083 1 P
 ED20   3.203 1 P
 ED20   6.233 1 S
 TERO   6.403 1 P
 TERO  12.103 1 S
T1246  11.263 1 S
 GIGS  16.003 1 S
 CAMP  11.713 1 S
 ED14   8.243 1 P
 ED25   5.233 1 P
T1204   3.943 1 P
 SMA1   4.513 1 P
 SMA1   8.393 1 S
 ED05  13.663 1 S
T1299   4.524 1 P
# 2016 10 14 01 32 55.488 42.8771  13.2511   5.842  0.40 0 0 0     86
 ED10   5.082 1 S
 NRCA   4.452 1 S
T1245   2.612 1 S
T1245   1.392 1 P
 ED19   2.002 1 P
 ED19   3.752 1 S
  MC2   2.792 1 S
 ED18   4.722 1 S
 ED21   5.752 1 S
 ED22   5.582 1 S
 ED17   3.842 1 S
 MMO1   1.532 1 P
 MMO1   2.842 1 S
 ED16   3.082 1 S
# 2016 10 14 01 33 36.915 42.8796  13.2482   3.500  0.45 0 0 0     87
T1214   2.635 1 P
T1214   5.005 1 S
 ED10   4.955 1 S
T1245   1.186 1 P
 NRCA   2.196 1 P
 NRCA   4.056 1 S
T1216   6.295 1 S
 ED19   1.865 1 P
 ED19   3.515 1 S
  MC2   2.386 1 S
  MC2   1.316 1 P
 FDMO   7.325 1 S
 CSP1   7.985 1 S
 ED18   2.275 1 P
 ED18   4.575 1 S
 ED21   3.055 1 P
 ED21   5.595 1 S
 ED22   5.435 1 S
 ED17   3.675 1 S
 ED17   1.985 1 P
 MMO1   1.375 1 P
 ED20   6.955 1 S
 ED16   2.315 1 S
# 2016 10 14 01 35 49.622 42.7702  13.2268   3.112  0.49 0 0 0     88
T1202   1.688 1 P
 ED03   6.718 1 S
 ED24   2.688 1 P
 ED24   5.208 1 S
T1218   5.168 1 S
T1214   0.678 1 P
T1214   0.938 1 S
 ED02   9.718 1 S
T1212   4.898 1 S
T1212   2.508 1 P
 ED10   2.398 1 S
 ED12   3.348 1 P
T1245   3.528 1 S
 ED18   8.878 1 S
 ED16   3.798 1 S
 ED09   2.838 1 P
 ED09   5.558 1 S
 ED20   2.968 1 P
 ED20   5.788 1 S
 TERO  10.918 1 S
 ED07   8.478 1 S
T1246   9.688 1 S
# 2016 10 14 01 36 34.543 42.9020  13.2324   0.978  0.61 0 0 0     89
 ED03  11.447 1 S
T1214   6.207 1 S
T1214   3.167 1 P
 ED24   9.927 1 S
 ED01  14.127 1 S
 ED10   5.177 1 S
 ED10   3.087 1 P
T1245   1.487 1 P
 NRCA   3.957 1 S
T1216   6.387 1 S
 ED19   1.987 1 S
 ED19   1.777 1 P
 CESI  10.107 1 S
  MC2   1.337 1 S
 FDMO   6.867 1 S
 FDMO   3.407 1 P
 CSP1   7.457 1 S
 ED18   1.887 1 P
 ED21   4.807 1 S
 ED21   2.577 1 P
 GUMA   7.328 1 S
 ED22   4.837 1 S
 ED17   1.597 1 P
 MMO1   1.397 1 P
 ED09   3.457 1 P
 ED09   6.497 1 S
 ED20   4.117 1 P
 ED20   7.837 1 S
 ED16   1.847 1 P
 ED16   3.627 1 S
T1246  13.517 1 S
 SMA1  10.407 1 S
# 2016 10 14 01 36 57.135 42.8177  13.1866   6.500  0.46 0 0 0     90
T1218   6.215 1 S
 ED10   1.715 1 P
 ED10   2.635 1 S
 ED11   6.605 1 S
T1212   4.745 1 S
 ED12   5.775 1 S
T1215   8.345 1 S
 NRCA   2.705 1 S
 NRCA   1.375 1 P
T1216   2.805 1 P
 FDMO   8.795 1 S
 ED19   2.295 1 P
 ED19   4.345 1 S
  MC2   4.495 1 S
T1245   1.325 1 P
T1245   2.545 1 S
 ED17   3.435 1 P
 ED17   6.215 1 S
 ED16   4.045 1 S
 ED09   6.425 1 S
 ED20   3.685 1 P
 ED20   6.945 1 S
T1214   3.125 1 S
T1214   1.645 1 P
 ED24   6.495 1 S
 ED03   7.945 1 S
# 2016 10 14 01 37 22.568 42.8737  13.0631   8.328  0.81 0 0 0     91
T1212   2.852 1 P
T1212   5.252 1 S
 ED11   7.202 1 S
T1217   7.202 1 S
 ED12   2.352 1 P
 ED12   4.162 1 S
T1215   3.322 1 P
T1216   1.402 1 P
 CESI   6.482 1 S
 FDMO   3.282 1 P
 FDMO   6.092 1 S
 CSP1   8.702 1 S
 ED21   4.252 1 P
 ED21   8.112 1 S
 ED18   3.562 1 P
 ED19   1.982 1 P
 ED17   3.962 1 P
  MC2   4.602 1 S
 MMO1   7.392 1 S
 MMO1   3.922 1 P
T1245   2.362 1 P
T1245   3.942 1 S
 ED16   7.142 1 S
 ED09   9.852 1 S
 ED09   5.232 1 P
 ED20   5.722 1 P
 ED20  10.552 1 S
 NRCA   1.702 1 P
 NRCA   3.292 1 S
T1214   5.882 1 S
 ED10   4.702 1 S
 ED10   2.572 1 P
T1218   7.872 1 S
# 2016 10 14 01 40  3.940 42.8456  13.2741   3.593  0.55 0 0 0     92
T1214   4.250 1 S
 ED10   2.250 1 P
T1212   7.010 1 S
 NRCA   5.240 1 S
 NRCA   2.140 1 P
T1245   1.250 1 P
 ED19   2.320 1 P
 ED19   4.420 1 S
 FDMO   8.320 1 S
 ED18   2.970 1 P
 ED18   5.740 1 S
 ED21   6.690 1 S
 ED17   4.630 1 S
 ED17   2.660 1 P
 ED22   6.620 1 S
 MMO1   1.510 1 P
 MMO1   2.820 1 S
 ED16   0.970 1 P
 ED16   1.230 1 S
 ED09   2.700 1 P
 ED20   3.050 1 P
# 2016 10 14 01 40 53.950 42.8133  13.1468   5.500  0.33 0 0 0     93
 ED10   1.150 1 P
T1218   5.520 1 S
 ED11   5.860 1 S
T1212   3.420 1 S
 ED12   2.600 1 P
 ED12   5.200 1 S
T1215   7.890 1 S
 NRCA   1.790 1 S
 NRCA   1.100 1 P
 ED19   4.360 1 S
 ED21   8.280 1 S
T1245   1.420 1 P
T1245   2.810 1 S
 MMO1   6.140 1 S
 ED16   4.910 1 S
 ED20   7.670 1 S
T1214   1.670 1 P
T1214   3.470 1 S
# 2016 10 14 01 44  3.448 42.8087  13.2196   4.925  0.25 0 0 0     94
 ED11   7.242 1 S
 ED10   2.762 1 S
 ED10   1.472 1 P
T1212   5.342 1 S
T1212   2.852 1 P
 NRCA   1.622 1 P
 ED19   4.842 1 S
 FDMO   8.852 1 S
T1245   1.332 1 P
T1245   2.482 1 S
 ED17   6.412 1 S
 MMO1   4.672 1 S
 ED16   3.432 1 S
 ED09   2.982 1 P
# 2016 10 14 01 45 43.883 42.5857  13.2642   4.500  0.42 0 0 0     95
 ED01   2.807 1 P
 CESI  17.107 1 S
 ED10   4.147 1 P
 FDMO  17.577 1 S
 ED19  12.127 1 S
T1214   6.347 1 S
  MC2  11.497 1 S
 SMA1   1.827 1 P
 SMA1   3.067 1 S
 ED07   2.737 1 P
 ED07   5.027 1 S
 ED25   1.547 1 P
 ED25   2.907 1 S
 ED05   5.017 1 S
# 2016 10 14 01 45 57.401 42.8506  12.9860   9.172  0.85 0 0 0     96
 ED12   1.549 1 P
 ED12   3.799 1 S
 ED02   5.049 1 P
 ED02   8.859 1 S
T1217   3.149 1 P
T1217   5.759 1 S
T1211  11.689 1 S
T1215   2.339 1 P
 CESI   3.599 1 P
 CESI   6.490 1 S
 FDMO   4.039 1 P
 FDMO   7.499 1 S
 FEMA   5.469 1 S
 CSP1   9.639 1 S
T1216   1.699 1 P
 ED21   5.289 1 P
 ED21   9.899 1 S
 ED18   4.609 1 P
 ED22  10.899 1 S
 ED19   2.929 1 P
 ED17   9.669 1 S
 ED17   5.029 1 P
 MMO1   4.899 1 P
 MMO1   9.369 1 S
T1245   5.990 1 S
T1245   3.140 1 P
 ED16   8.679 1 S
 ED09   6.099 1 P
 ED09  11.429 1 S
 NRCA   4.240 1 S
 NRCA   2.240 1 P
T1214   3.969 1 P
T1214   6.959 1 S
 ED10   2.969 1 P
 ED10   4.829 1 S
 ED24   5.289 1 P
 ED24   8.919 1 S
 ED03  10.539 1 S
 RM33  13.759 1 S
T1212   4.579 1 S
T1212   2.449 1 P
 ED01  11.799 1 S
 ED11   3.379 1 P
 ED11   6.369 1 S
# 2016 10 14 01 46 32.824 42.8833  13.2376   2.321  1.06 0 0 0     97
T1202   7.676 1 S
 ED03   5.736 1 P
 ED03  10.796 1 S
 ED24   9.496 1 S
T1214   5.216 1 S
T1214   2.866 1 P
 ED01  13.776 1 S
T1218   9.076 1 S
 ED10   5.186 1 S
 ED10   2.736 1 P
 ED11   8.616 1 S
T1211  16.076 1 S
 ED02  12.896 1 S
T1212   7.466 1 S
T1212   4.026 1 P
T1217  10.036 1 S
T1245   1.146 1 P
 NRCA   2.276 1 P
 ED12   7.136 1 S
 ED12   4.206 1 P
T1215  10.366 1 S
T1215   5.556 1 P
T1216   6.206 1 S
T1216   3.296 1 P
 CESI   5.276 1 P
 CESI   9.896 1 S
 ED19   1.576 1 P
 FEMA   6.206 1 S
  MC2   1.356 1 S
  MC2   1.066 1 P
 FDMO   3.566 1 P
 FDMO   6.706 1 S
 ED18   2.106 1 P
 ED18   4.216 1 S
 ED21   5.226 1 S
 ED21   2.856 1 P
 GUMA   7.296 1 S
 GUMA   4.076 1 P
 ED22   5.236 1 S
 ED17   1.866 1 P
 MMO1   1.296 1 P
 ED09   6.276 1 S
 ED09   3.196 1 P
 ED20   3.876 1 P
 ED20   7.336 1 S
 ED16   1.896 1 S
 TERO   7.026 1 P
 TERO  13.356 1 S
 ED15  15.136 1 S
T1246  12.666 1 S
 ED07  11.186 1 S
 GIGS  17.366 1 S
 CAMP  13.186 1 S
 SMA1   9.776 1 S
 ED05  15.116 1 S
# 2016 10 14 01 47  7.756 42.8889  13.2429   5.577  0.34 0 0 0     98
 ED10   5.064 1 S
T1245   2.634 1 S
T1245   1.444 1 P
T1216   6.284 1 S
 ED19   1.854 1 P
 ED19   3.394 1 S
  MC2   2.454 1 S
 ED18   4.334 1 S
 ED21   5.504 1 S
 ED17   3.614 1 S
 MMO1   2.834 1 S
 MMO1   1.554 1 P
 ED16   3.434 1 S
# 2016 10 14 01 50 44.085 42.7392  13.1808   5.966  0.38 0 0 0     99
T1218   1.875 1 P
T1218   3.625 1 S
 ED02   8.355 1 S
 ED11   2.505 1 P
T1217   7.385 1 S
T1212   4.185 1 S
T1212   2.225 1 P
T1215   8.755 1 S
 ED12   3.435 1 P
 ED12   5.605 1 S
 ED10   1.235 1 P
 NRCA   4.186 1 S
 NRCA   2.206 1 P
T1245   4.956 1 S
 ED17   8.855 1 S
 MMO1   7.375 1 S
 ED16   5.425 1 S
T1214   0.965 1 P
T1246   9.595 1 S
T1202   1.215 1 P
T1202   2.515 1 S
T1201   2.245 1 P
T1201   4.575 1 S
 ED24   1.925 1 P
 ED24   3.445 1 S
# 2016 10 14 01 51  8.842 42.8927  13.2430   3.500  0.51 0 0 0    100
T1214   5.458 1 S
 ED10   2.828 1 P
 ED10   5.068 1 S
T1245   1.258 1 P
 ED12   8.018 1 S
T1216   6.128 1 S
 ED19   1.698 1 P
 ED19   3.218 1 S
  MC2   1.878 1 S
 FDMO   6.848 1 S
 CSP1   7.758 1 S
 ED18   2.148 1 P
 ED18   4.008 1 S
 ED21   2.838 1 P
 ED21   5.118 1 S
 ED22   4.998 1 S
 ED17   3.198 1 S
 ED17   1.778 1 P
 MMO1   2.548 1 S
 MMO1   1.398 1 P
 ED20   7.288 1 S
 ED16   3.238 1 S
