# 2016 10 14 03 36  4.403 42.8339  13.2874   0.000  1.52 0 0 0    169
T1201   3.987 1 P
 ED06  13.837 1 S
 RM33  12.897 1 S
T1202   3.087 1 P
 ED03  10.047 1 S
 ED03   4.857 1 P
 ED24   3.887 1 P
 ED01   6.447 1 P
 ED01  12.987 1 S
T1214   1.587 1 P
T1218   4.137 1 P
T1218   8.757 1 S
T1211  16.187 1 S
 ED02   6.657 1 P
 ED11   4.617 1 P
 ED10   2.287 1 P
 ED10   5.217 1 S
T1212   3.797 1 P
 ED12   4.497 1 P
T1215   5.917 1 P
 NRCA   2.328 1 P
T1216   3.937 1 P
T1245   1.178 1 P
 CESI   6.387 1 P
 ED19   2.597 1 P
  MC2   2.098 1 P
 FDMO   9.977 1 S
 FDMO   4.647 1 P
 CSP1   5.087 1 P
 ED18   3.077 1 P
 ED18   6.817 1 S
 ED21   3.797 1 P
 GUMA   9.868 1 S
 ED17   5.577 1 S
 ED17   2.507 1 P
 ED22   7.577 1 S
 MMO1   1.418 1 P
 ED09   2.167 1 P
 ED09   4.687 1 S
 ED20   6.017 1 S
 ED20   2.507 1 P
 TERO   5.917 1 P
 TERO  12.137 1 S
 ED15   6.797 1 P
T1246  10.997 1 S
T1246   5.557 1 P
 ED07   4.687 1 P
 GIGS  15.527 1 S
 GIGS   8.247 1 P
 CAMP  11.457 1 S
 CAMP   5.827 1 P
 ED14   7.487 1 P
 ED25   4.617 1 P
 ED25   9.407 1 S
 SMA1   8.037 1 S
 SMA1   3.977 1 P
T1204   3.237 1 P
 ED05   6.757 1 P
 ED05  13.627 1 S
T1247   7.977 1 P
T1299   4.068 1 P
# 2016 10 14 03 37 36.718 42.9224  13.1822   4.554  0.56 0 0 0    170
T1245   2.782 1 S
  MC2   1.362 1 S
  MC2   1.022 1 P
T1218   9.402 1 S
 ED10   5.482 1 S
 ED11   9.282 1 S
 ED02  12.672 1 S
T1212   7.372 1 S
T1212   4.012 1 P
 NRCA   4.002 1 S
T1217  10.132 1 S
 ED12   7.362 1 S
T1215   9.472 1 S
T1216   4.702 1 S
 ED19   1.052 1 P
 CESI   8.072 1 S
 FEMA   4.532 1 S
 FDMO   2.662 1 P
 FDMO   5.032 1 S
 CSP1   6.462 1 S
 ED18   3.552 1 S
 ED21   2.482 1 P
 ED21   4.752 1 S
 ED17   1.992 1 P
 MMO1   4.262 1 S
 MMO1   2.182 1 P
 ED20   8.962 1 S
 ED16   5.022 1 S
T1246   7.992 1 P
T1214   6.372 1 S
 ED24  10.302 1 S
# 2016 10 14 03 38 26.961 42.8142  13.1798   8.637  0.72 0 0 0    171
T1218   6.209 1 S
 ED02   5.489 1 P
 ED02   9.869 1 S
T1212   5.239 1 S
T1217   8.029 1 S
T1215   4.509 1 P
 ED12   3.179 1 P
 NRCA   3.129 1 S
 NRCA   1.649 1 P
T1216   5.439 1 S
T1216   2.969 1 P
 CESI   9.939 1 S
 CESI   5.349 1 P
 ED19   2.529 1 P
 ED19   4.569 1 S
 FDMO   8.339 1 S
 FDMO   4.659 1 P
T1245   3.189 1 S
T1245   1.589 1 P
  MC2   4.859 1 S
 CSP1  10.179 1 S
 ED21   4.519 1 P
 ED21   8.149 1 S
 ED17   3.579 1 P
 ED17   6.519 1 S
 MMO1   5.499 1 S
 MMO1   2.969 1 P
 ED16   4.639 1 S
 ED09   3.619 1 P
 ED09   7.009 1 S
 ED20   3.929 1 P
 ED20   7.449 1 S
T1246  11.539 1 S
T1214   1.249 1 P
# 2016 10 14 03 38 57.555 42.8951  13.2384   3.903  0.60 0 0 0    172
T1214   5.605 1 S
T1218   9.075 1 S
 ED10   5.175 1 S
T1245   1.225 1 P
 ED11   9.525 1 S
T1212   7.545 1 S
 NRCA   2.195 1 P
 NRCA   3.895 1 S
 ED12   7.935 1 S
T1216   6.085 1 S
T1216   3.195 1 P
 ED19   1.605 1 P
  MC2   1.085 1 P
  MC2   2.015 1 S
 CESI   9.765 1 S
 FDMO   6.555 1 S
 CSP1   7.555 1 S
 ED18   4.085 1 S
 ED18   2.185 1 P
 ED21   5.195 1 S
 ED22   5.065 1 S
 ED17   3.385 1 S
 ED17   1.755 1 P
 MMO1   1.345 1 P
 MMO1   2.695 1 S
 ED20   7.405 1 S
 ED16   3.335 1 S
# 2016 10 14 03 40  2.160 42.7772  13.1466   3.500  0.82 0 0 0    173
 ED01   9.570 1 S
T1212   3.330 1 S
T1212   1.700 1 P
 ED12   2.630 1 P
T1216   5.750 1 S
 CESI  10.310 1 S
 NRCA   1.040 1 P
 ED19   2.880 1 P
 ED19   5.250 1 S
 ED18   9.250 1 S
 ED21   9.460 1 S
T1245   1.610 1 P
 ED17   4.140 1 P
 ED17   8.000 1 S
 MMO1   3.450 1 P
 ED16   5.570 1 S
 ED09   7.770 1 S
 ED20   7.990 1 S
T1214   1.000 1 P
 TERO  13.060 1 S
T1246  11.710 1 S
 ED24   2.560 1 P
# 2016 10 14 03 41 28.096 42.7399  13.2231   4.323  0.70 0 0 0    174
 RM33   9.014 1 S
T1202   2.144 1 S
 ED03   5.714 1 S
 ED24   2.704 1 S
T1218   2.414 1 P
T1218   4.574 1 S
 ED02   4.984 1 P
 ED11   3.024 1 P
T1212   2.724 1 P
T1215   9.374 1 S
 ED10   3.094 1 S
T1214   0.734 1 P
T1214   1.584 1 S
 NRCA   4.544 1 S
 NRCA   2.494 1 P
 ED19   7.144 1 S
 ED19   3.784 1 P
 ED18   9.354 1 S
 ED21  10.434 1 S
 ED17   8.304 1 S
 ED22  10.164 1 S
 MMO1   6.434 1 S
 ED16   5.154 1 S
 ED09   6.274 1 S
 ED20   5.694 1 S
 TERO  11.144 1 S
T1246   9.384 1 S
T1246   5.044 1 P
 GIGS  13.154 1 S
 ED14   6.464 1 P
 ED05   5.584 1 P
T1201   2.574 1 S
# 2016 10 14 03 41 46.130 42.7413  13.2077   8.408  0.55 0 0 0    175
 ED03   5.740 1 S
 ED24   4.170 1 S
T1218   2.370 1 P
T1218   4.480 1 S
T1212   4.930 1 S
 NRCA   4.540 1 S
 NRCA   2.470 1 P
 ED19   7.160 1 S
T1214   2.600 1 S
 ED17   8.780 1 S
 MMO1   6.900 1 S
 ED16   5.170 1 S
 ED20   6.010 1 S
T1246   5.020 1 P
T1246   9.330 1 S
T1202   3.030 1 S
T1201   2.410 1 P
# 2016 10 14 03 42 37.440 42.7499  13.1601  11.760  0.71 0 0 0    176
T1218   4.640 1 S
T1211  11.510 1 S
 ED02   8.480 1 S
 ED11   3.410 1 P
 ED11   4.780 1 S
T1212   2.260 1 P
T1215   4.300 1 P
 NRCA   2.650 1 P
 FDMO   5.370 1 P
 FDMO   9.540 1 S
 ED19   3.880 1 P
 ED19   6.880 1 S
T1245   5.700 1 S
 ED17   5.100 1 P
 MMO1   4.310 1 P
 MMO1   7.770 1 S
T1214   3.780 1 S
 ED20   7.290 1 S
T1202   2.470 1 P
T1299   6.120 1 S
T1201   5.470 1 S
T1201   3.060 1 P
 ED05  10.860 1 S
 ED24   2.850 1 P
 ED24   4.720 1 S
 ED03   6.070 1 S
# 2016 10 14 03 43  0.467 42.8783  13.0665   4.869  0.82 0 0 0    177
T1212   2.623 1 P
T1212   4.943 1 S
 ED11   3.963 1 P
 ED11   7.103 1 S
 ED02  10.323 1 S
T1217   7.353 1 S
 ED12   2.143 1 P
 ED12   4.053 1 S
T1215   6.343 1 S
T1216   1.113 1 P
T1216   2.133 1 S
 CESI   6.763 1 S
 FDMO   6.333 1 S
 FDMO   3.263 1 P
 CSP1   4.653 1 P
 ED21   4.153 1 P
 ED21   7.923 1 S
 ED18   3.453 1 P
 ED19   1.463 1 P
 ED22   8.703 1 S
 ED17   7.203 1 S
 ED17   3.823 1 P
  MC2   4.113 1 S
 MMO1   3.713 1 P
 MMO1   6.813 1 S
T1245   1.933 1 P
T1245   3.443 1 S
 ED16   6.733 1 S
 ED09   9.653 1 S
 NRCA   1.233 1 P
T1214   5.703 1 S
 ED10   2.293 1 P
 ED10   4.273 1 S
T1201   9.943 1 S
T1201   5.323 1 P
 ED24   4.553 1 P
 ED24   8.563 1 S
 RM33  13.593 1 S
# 2016 10 14 03 44 48.925 42.8970  13.2587   4.099  0.58 0 0 0    178
 ED24   9.515 1 S
T1214   5.685 1 S
T1218   9.385 1 S
 ED10   5.465 1 S
 ED10   2.905 1 P
T1212   7.855 1 S
T1245   1.445 1 P
 NRCA   4.435 1 S
 NRCA   2.485 1 P
 ED12   8.425 1 S
T1216   6.555 1 S
 ED19   1.945 1 P
  MC2   1.285 1 P
  MC2   2.605 1 S
 FDMO   6.895 1 S
 CSP1   7.445 1 S
 ED18   3.995 1 S
 ED21   4.865 1 S
 ED22   4.785 1 S
 ED17   1.535 1 P
 MMO1   1.025 1 P
 ED09   5.795 1 S
 ED20   7.185 1 S
 ED16   3.105 1 S
# 2016 10 14 03 48 22.022 42.7404  13.1766  10.062  0.47 0 0 0    179
 ED03   5.618 1 S
 ED24   2.268 1 P
 ED24   4.248 1 S
T1218   4.218 1 S
T1218   2.228 1 P
 ED11   5.218 1 S
T1212   4.518 1 S
 ED12   3.558 1 P
 ED12   6.388 1 S
 ED10   3.358 1 S
 NRCA   4.778 1 S
 ED19   7.078 1 S
T1214   3.328 1 S
 ED17   9.128 1 S
 ED17   4.668 1 P
 MMO1   7.328 1 S
 MMO1   3.878 1 P
 ED16   5.878 1 S
 ED20   6.858 1 S
T1299   5.678 1 S
T1201   5.028 1 S
T1201   2.638 1 P
# 2016 10 14 03 49 52.856 42.9221  13.1880   6.423  0.26 0 0 0    180
 NRCA   4.114 1 S
T1212   7.554 1 S
 ED19   1.244 1 P
 ED19   2.324 1 S
T1216   5.034 1 S
 FDMO   5.414 1 S
 ED21   4.884 1 S
 ED18   1.904 1 P
 ED17   2.144 1 P
 ED17   4.084 1 S
 MMO1   4.294 1 S
  MC2   1.134 1 P
  MC2   2.214 1 S
# 2016 10 14 03 50 32.316 42.7886  13.2410   1.223  0.55 0 0 0    181
T1202   4.014 1 S
 ED03   7.864 1 S
 ED24   2.734 1 P
 ED24   5.934 1 S
T1218   5.904 1 S
T1218   2.974 1 P
T1214   1.064 1 S
T1214   0.844 1 P
T1212   5.824 1 S
T1212   3.004 1 P
 ED10   1.374 1 P
 ED19   5.584 1 S
T1245   2.654 1 S
 ED18   8.474 1 S
 ED21   8.904 1 S
 ED17   6.834 1 S
 ED22   9.254 1 S
 MMO1   4.954 1 S
 ED16   3.264 1 S
 ED09   5.354 1 S
 ED20   3.224 1 P
 ED20   5.394 1 S
 TERO  11.054 1 S
T1246   9.904 1 S
# 2016 10 14 03 51  0.674 42.7468  13.1793   6.841  0.43 0 0 0    182
T1218   4.096 1 S
 ED11   4.976 1 S
T1217   6.876 1 S
 ED10   2.596 1 S
 NRCA   2.116 1 P
 NRCA   4.136 1 S
 ED19   6.716 1 S
 MMO1   3.576 1 P
 ED16   5.396 1 S
T1214   1.216 1 P
T1214   2.236 1 S
T1202   3.156 1 S
T1201   2.396 1 P
 ED24   1.986 1 P
 ED24   3.886 1 S
 ED03   2.796 1 P
# 2016 10 14 03 54 33.791 42.5916  13.3588   8.500  0.31 0 0 0    183
 ED25   1.279 1 P
 ED04   3.049 1 S
 ED24   5.769 1 S
T1299   3.679 1 S
T1299   1.959 1 P
 SMA1   3.489 1 S
 SMA1   1.579 1 P
T1204   4.019 1 S
T1204   2.179 1 P
 ED20   6.209 1 S
 ED07   4.009 1 S
 ED07   2.139 1 P
 TERO   3.549 1 P
T1246   4.239 1 S
T1246   2.279 1 P
 ED15   6.849 1 S
 CAMP   3.179 1 S
 ED14   3.029 1 P
 ED14   5.749 1 S
 ED05   2.899 1 P
# 2016 10 14 03 56 57.018 42.8184  13.2206   3.443  0.61 0 0 0    184
 ED03   4.352 1 P
 ED03   8.432 1 S
T1214   1.152 1 P
T1218   6.742 1 S
 ED02  10.642 1 S
 ED10   1.512 1 P
T1212   5.342 1 S
 ED12   6.442 1 S
 NRCA   1.442 1 P
T1245   0.852 1 P
 ED19   2.332 1 P
 ED19   4.482 1 S
  MC2   4.322 1 S
 CSP1  10.132 1 S
 ED18   6.912 1 S
 ED21   7.892 1 S
 ED22   7.982 1 S
 ED17   5.992 1 S
 ED17   3.102 1 P
 MMO1   4.292 1 S
 MMO1   2.212 1 P
 ED16   2.382 1 S
 ED16   1.452 1 P
 ED20   6.442 1 S
 TERO  12.192 1 S
T1246  10.952 1 S
T1202   5.122 1 S
# 2016 10 14 03 57 15.027 42.8691  13.0769   4.176  0.49 0 0 0    185
T1212   2.563 1 P
T1212   4.813 1 S
 ED12   2.053 1 P
T1215   3.353 1 P
T1216   1.063 1 P
 CESI   6.893 1 S
 FDMO   6.243 1 S
 CSP1   8.993 1 S
 ED21   7.923 1 S
 ED19   3.133 1 S
 ED19   1.433 1 P
 MMO1   6.793 1 S
T1241   9.533 1 S
 NRCA   1.943 1 S
 NRCA   1.163 1 P
# 2016 10 14 04 01 22.799 42.7382  13.1859   3.923  0.78 0 0 0    186
 ED01   4.311 1 P
 ED01   8.471 1 S
T1218   1.761 1 P
 ED02   4.421 1 P
 ED02   8.431 1 S
 ED11   2.461 1 P
T1212   2.131 1 P
T1215   4.531 1 P
T1215   8.681 1 S
 ED12   3.281 1 P
 ED10   1.131 1 P
 FDMO   6.131 1 P
 ED19   6.881 1 S
T1245   5.021 1 S
 CSP1  12.641 1 S
 ED18   9.331 1 S
 ED21  10.651 1 S
 GUMA  13.041 1 S
 ED22  10.771 1 S
 ED17   4.621 1 P
 ED17   8.741 1 S
 MMO1   3.671 1 P
 MMO1   6.971 1 S
 ED16   2.701 1 P
 ED16   5.291 1 S
T1214   0.771 1 P
 ED09   6.881 1 S
 ED09   3.461 1 P
 ED20   3.411 1 P
 ED20   6.651 1 S
 TERO  11.231 1 S
 TERO   5.921 1 P
 ED07   8.641 1 S
 ED07   4.491 1 P
T1204   4.931 1 S
T1204   2.491 1 P
T1246   9.711 1 S
T1246   5.101 1 P
 SMA1   3.171 1 P
T1202   1.471 1 S
T1202   1.221 1 P
T1299   2.791 1 P
T1201   2.291 1 P
 RM33   8.671 1 S
 ED24   1.741 1 P
 ED03   2.781 1 P
 ED03   5.391 1 S
# 2016 10 14 04 03 30.726 42.8915  13.2294   1.815  1.18 0 0 0    187
T1214   2.594 1 P
T1214   5.354 1 S
 ED03   5.764 1 P
 ED03  11.144 1 S
 ED24   4.614 1 P
 ED24   9.234 1 S
 ED01   7.064 1 P
 ED01  13.404 1 S
 ED08   8.354 1 P
T1218   8.914 1 S
T1218   4.584 1 P
 ED10   2.454 1 P
 ED10   4.974 1 S
T1245   0.664 1 P
 ED11   4.814 1 P
 ED11   9.644 1 S
 ED02  12.954 1 S
 ED02   6.784 1 P
T1212   3.734 1 P
T1212   7.754 1 S
T1217   5.454 1 P
 NRCA   1.904 1 P
 ED12   3.894 1 P
T1215   5.294 1 P
T1216   2.974 1 P
 ED19   1.094 1 P
 ED19   3.094 1 S
 CESI   5.124 1 P
  MC2   1.004 1 P
 FDMO   3.384 1 P
 FDMO   6.734 1 S
 CSP1   3.954 1 P
 CSP1   7.944 1 S
 ED18   1.984 1 P
 ED18   4.244 1 S
 ED21   2.684 1 P
 ED21   5.404 1 S
 GUMA   7.584 1 S
 ED22   5.534 1 S
 ED17   3.754 1 S
 ED17   1.504 1 P
 MMO1   3.084 1 S
 ED09   3.354 1 P
 ED09   6.464 1 S
 ED16   1.704 1 P
 ED20   7.664 1 S
 ED20   4.014 1 P
 TERO   7.244 1 P
 TERO  13.654 1 S
T1246   6.934 1 P
T1246  12.924 1 S
 GIGS  17.724 1 S
 CAMP  13.354 1 S
 ED14  16.724 1 S
T1204   4.744 1 P
 ED25   6.064 1 P
 ED25  11.444 1 S
 SMA1   5.224 1 P
 SMA1   9.944 1 S
 ED05  15.174 1 S
 ED05   8.054 1 P
T1299   5.254 1 P
 ED04  12.484 1 S
T1201   4.954 1 P
T1202   3.984 1 P
T1202   7.644 1 S
# 2016 10 14 04 06 57.015 42.8103  13.2484   0.482  0.53 0 0 0    188
T1214   1.145 1 P
T1218   6.545 1 S
 ED10   1.805 1 P
 ED10   3.265 1 S
T1212   6.455 1 S
T1245   2.745 1 S
 ED19   5.165 1 S
 ED18   7.405 1 S
 ED21   8.405 1 S
 ED22   8.215 1 S
 ED17   3.265 1 P
 ED17   6.305 1 S
 MMO1   2.365 1 P
 MMO1   4.305 1 S
 ED16   1.385 1 P
 ED16   1.635 1 S
 ED20   3.055 1 P
 ED20   5.865 1 S
# 2016 10 14 04 07 14.592 42.8765  13.0625   4.500  0.43 0 0 0    189
T1212   2.648 1 P
T1212   4.858 1 S
 ED11   7.118 1 S
 ARRO  12.328 1 S
 ED12   2.148 1 P
 ED12   4.078 1 S
T1215   6.348 1 S
T1216   1.528 1 S
T1216   1.098 1 P
 CESI   6.928 1 S
 FDMO   3.458 1 P
 FDMO   6.218 1 S
 ED19   1.538 1 P
 ED19   2.758 1 S
 ED22   8.698 1 S
 ED17   7.148 1 S
 ED17   3.798 1 P
 MMO1   7.008 1 S
 MMO1   3.748 1 P
T1245   3.988 1 S
 ED16   7.028 1 S
 ED10   4.488 1 S
# 2016 10 14 04 08  5.439 42.8274  13.0983   6.717  0.56 0 0 0    190
 ED11   5.611 1 S
T1212   3.831 1 S
T1212   2.041 1 P
 ED12   2.071 1 P
 ED12   3.891 1 S
T1215   6.581 1 S
T1215   3.301 1 P
 ED19   2.271 1 P
 ED19   3.671 1 S
 ED21   4.611 1 P
 ED21   8.701 1 S
  MC2   4.981 1 S
 ED17   4.021 1 P
 ED17   7.541 1 S
 MMO1   6.831 1 S
 MMO1   3.611 1 P
T1245   3.141 1 S
T1245   1.931 1 P
 ED16   6.201 1 S
 ED20   9.271 1 S
T1214   4.461 1 S
T1218   5.951 1 S
# 2016 10 14 04 09 20.257 42.6463  13.3160   0.000  3.42 0 0 0    191
T1247   4.133 1 P
T1247   8.313 1 S
 ED04   2.423 1 S
 ED06   3.783 1 P
 ED06   7.983 1 S
 RM33   7.023 1 S
 ED01   3.653 1 P
T1299   0.993 1 P
 ED03   2.103 1 P
 ARRO   7.644 1 P
 ED24   1.813 1 P
T1218   2.853 1 P
T1201   1.883 1 S
 ED11   8.753 1 S
 ED11   3.833 1 P
T1217   5.393 1 P
T1217  11.143 1 S
T1215   6.633 1 P
T1215  13.393 1 S
T1212   4.093 1 P
T1212   9.053 1 S
 ED12  12.043 1 S
 ED12   5.563 1 P
T1202   3.183 1 S
 ED10   7.503 1 S
 ED10   3.833 1 P
T1216   6.323 1 P
T1216  12.583 1 S
 CESI   9.003 1 P
T1214   3.273 1 P
 FEMA  14.183 1 S
 SEF1  11.294 1 P
 ED19  11.613 1 S
 ED19   6.213 1 P
T1245   4.984 1 P
 FDMO  15.643 1 S
 FDMO   8.163 1 P
  MC2  11.164 1 S
 MDAR  20.044 1 S
 CSP1  16.423 1 S
 CSP1   8.413 1 P
 ED18  13.103 1 S
 ED18   6.623 1 P
 ED21  13.883 1 S
 ED16   4.123 1 P
 ED16   8.163 1 S
 ED17   5.753 1 P
 ED17  11.673 1 S
T1204   1.293 1 S
T1204   0.933 1 P
 ED22  13.453 1 S
 MMO1   4.733 1 P
 MMO1   9.553 1 S
 GUMA  15.654 1 S
T1241   8.903 1 S
 ED09   6.983 1 S
 ED09   3.113 1 P
 ED20   5.753 1 S
 ED20   2.253 1 P
 OFFI   8.003 1 P
 TERO   7.853 1 S
 ED07   5.033 1 S
 ED07   2.123 1 P
T1246   2.473 1 P
T1246   6.033 1 S
 ED15   8.113 1 S
 ED15   3.903 1 P
 GIGS   5.123 1 P
 SMA1   0.783 1 P
 CAMP   2.523 1 P
 CAMP   5.643 1 S
 ED25   0.863 1 P
 ED14   4.343 1 P
 ED14   8.433 1 S
 ED05   7.103 1 S
# 2016 10 14 04 11 55.168 42.6455  13.3353  10.021  0.53 0 0 0    192
 ED03   4.862 1 S
T1299   3.292 1 S
T1299   1.802 1 P
 ED24   2.702 1 P
 ED24   4.922 1 S
T1218   3.332 1 P
T1201   3.962 1 S
 ED10   7.452 1 S
T1204   1.752 1 P
 ED16   7.622 1 S
 ED20   5.172 1 S
 TERO   4.042 1 P
 TERO   7.332 1 S
 ED07   4.732 1 S
T1246   5.552 1 S
 SMA1   2.982 1 S
 SMA1   1.642 1 P
 ED25   3.722 1 S
# 2016 10 14 04 12 34.085 42.6426  13.3366   9.500  0.56 0 0 0    193
 ED04   4.045 1 S
 RM33   6.375 1 S
 ED03   4.855 1 S
 ED03   2.645 1 P
T1299   3.305 1 S
T1299   1.775 1 P
 ED24   2.635 1 P
 ED24   4.945 1 S
T1218   6.385 1 S
T1218   3.365 1 P
T1201   3.825 1 S
T1201   2.135 1 P
 ED10   7.225 1 S
T1204   1.705 1 P
T1204   3.135 1 S
 ED16   7.665 1 S
 MMO1   9.335 1 S
 ED20   2.825 1 P
 ED20   5.115 1 S
 TERO   7.235 1 S
 TERO   3.975 1 P
 ED07   4.625 1 S
T1246   5.335 1 S
 SMA1   1.575 1 P
 CAMP   5.005 1 S
 ED25   1.835 1 P
 ED25   3.175 1 S
 ED14   7.985 1 S
# 2016 10 14 04 14  5.061 42.6435  13.3362  10.021  0.73 0 0 0    194
 ED04   4.159 1 S
 RM33   6.389 1 S
 ED03   4.829 1 S
 ED03   2.719 1 P
T1299   3.349 1 S
T1299   1.839 1 P
 ED24   2.699 1 P
 ED24   4.939 1 S
T1218   3.429 1 P
 ED11   8.099 1 S
T1201   3.889 1 S
T1201   2.169 1 P
T1212   4.659 1 P
 ED12  11.469 1 S
 ED10   7.239 1 S
 NRCA   8.919 1 S
 ED19  11.009 1 S
T1245   9.089 1 S
T1204   1.779 1 P
T1204   3.199 1 S
 ED18  12.509 1 S
 ED21  13.519 1 S
 ED16   7.599 1 S
 ED17  11.199 1 S
 ED22  12.929 1 S
 MMO1   9.289 1 S
 ED20   2.899 1 P
 ED20   5.239 1 S
 TERO   4.049 1 P
 TERO   7.379 1 S
 ED07   4.749 1 S
 ED07   2.619 1 P
T1246   3.079 1 P
T1246   5.269 1 S
 ED15   7.529 1 S
 GIGS   9.069 1 S
 SMA1   1.679 1 P
 CAMP   5.129 1 S
 CAMP   2.849 1 P
 ED25   1.889 1 P
 ED14   8.059 1 S
 ED05   6.589 1 S
# 2016 10 14 04 14 29.966 42.6469  13.3297   9.700  0.48 0 0 0    195
 ED04   4.274 1 S
 RM33   6.404 1 S
T1299   3.284 1 S
T1299   1.804 1 P
 ED03   4.834 1 S
 ED24   4.864 1 S
T1218   6.144 1 S
T1201   2.114 1 P
T1201   3.844 1 S
 ED11   8.054 1 S
T1212   8.384 1 S
 ED16   7.504 1 S
T1204   3.084 1 S
T1241   4.684 1 P
 ED20   2.814 1 P
 TERO   4.024 1 P
 TERO   7.284 1 S
 ED07   2.564 1 P
 ED07   4.724 1 S
T1246   5.534 1 S
 SMA1   2.754 1 S
 SMA1   1.624 1 P
 CAMP   5.164 1 S
 ED25   1.904 1 P
 ED25   3.584 1 S
 ED14   8.134 1 S
# 2016 10 14 04 15  0.893 42.6418  13.3338   9.897  0.64 0 0 0    196
 ED25   1.877 1 P
 ED25   3.537 1 S
 ED04   4.127 1 S
 RM33   6.437 1 S
 SMA1   2.907 1 S
 ED03   2.687 1 P
T1299   1.827 1 P
T1299   3.267 1 S
 ED24   2.697 1 P
 ED24   4.917 1 S
T1201   3.867 1 S
T1218   4.027 1 P
T1218   6.297 1 S
 ED11   8.087 1 S
T1212   8.497 1 S
 ED10   3.937 1 P
T1204   3.137 1 S
T1214   3.397 1 P
 NRCA   4.828 1 P
 ED19   5.927 1 P
 ED19  11.367 1 S
 ED18  12.517 1 S
 ED16   7.537 1 S
 ED21  13.457 1 S
 ED17  11.097 1 S
 MMO1   9.287 1 S
 ED22  12.897 1 S
 ED09   6.317 1 S
 ED20   2.807 1 P
 TERO   7.187 1 S
 ED07   4.647 1 S
 ED07   2.547 1 P
T1246   2.987 1 P
T1246   5.457 1 S
 CAMP   2.787 1 P
 ED14   4.337 1 P
 ED05   6.597 1 S
# 2016 10 14 04 15 18.391 42.6453  13.3321   9.981  0.52 0 0 0    197
 RM33   6.539 1 S
 ED03   4.839 1 S
T1299   3.319 1 S
T1299   1.809 1 P
 ED24   4.849 1 S
T1218   6.139 1 S
T1201   3.959 1 S
T1201   2.119 1 P
T1204   3.189 1 S
T1204   1.749 1 P
 ED16   7.669 1 S
 ED20   5.169 1 S
 ED20   2.849 1 P
 TERO   7.329 1 S
 TERO   4.049 1 P
 ED07   2.609 1 P
 ED07   4.739 1 S
T1246   5.559 1 S
 CAMP   5.179 1 S
 ED25   1.929 1 P
 ED25   3.729 1 S
 SMA1   3.009 1 S
 SMA1   1.649 1 P
# 2016 10 14 04 16 45.971 42.8154  13.1572  11.000  0.79 0 0 0    198
 ED01   5.639 1 P
T1218   6.289 1 S
T1218   3.369 1 P
T1211  12.729 1 S
 ED02   5.249 1 P
 ED02   9.659 1 S
 ED11   3.409 1 P
 ED11   6.349 1 S
 ED10   1.879 1 P
 ED10   3.479 1 S
T1212   4.899 1 S
T1212   2.679 1 P
T1217   7.669 1 S
T1215   7.969 1 S
 ED12   3.189 1 P
 ED12   5.729 1 S
T1216   2.839 1 P
T1216   5.659 1 S
 NRCA   2.159 1 P
 NRCA   3.329 1 S
 CESI   9.499 1 S
 FDMO   4.399 1 P
 ED19   2.579 1 P
 ED19   4.759 1 S
  MC2   4.999 1 S
T1245   3.639 1 S
T1245   1.979 1 P
 ED18   3.809 1 P
 ED18   7.529 1 S
 ED21   4.459 1 P
 ED21   8.359 1 S
 GUMA  10.829 1 S
 ED22   8.859 1 S
 ED17   6.969 1 S
 ED17   3.799 1 P
 MMO1   6.129 1 S
 ED16   5.459 1 S
 ED20   7.709 1 S
 ED20   4.239 1 P
 TERO  13.119 1 S
 ED07  10.349 1 S
T1246  11.749 1 S
 ED15  14.179 1 S
T1214   4.209 1 S
T1214   2.229 1 P
 CAMP  11.619 1 S
T1202   5.799 1 S
 ED24   3.529 1 P
 ED24   6.649 1 S
 RM33  11.229 1 S
 ED03   8.399 1 S
# 2016 10 14 04 17  0.034 42.7202  13.1757   3.500  1.15 0 0 0    199
 ED01   7.446 1 S
T1218   1.056 1 P
T1212   4.206 1 S
 ED10   3.006 1 S
T1214   1.736 1 S
T1214   0.996 1 P
T1241   8.576 1 S
 ED20   7.266 1 S
 TERO  11.176 1 S
 SMA1   6.706 1 S
 SMA1   3.306 1 P
T1299   2.476 1 P
T1201   1.806 1 P
 ED24   1.046 1 P
 ED24   2.416 1 S
 RM33   7.686 1 S
 ED03   4.916 1 S
